[{"NIS_code":11001,"municipality_NL":"Aartselaar","municipality_FR":"Aartselaar","arrondissement_NL":"Antwerpen","arrondissement_FR":"Anvers","province_NL":"Antwerpen","province_FR":"Anvers","region_NL":"Vlaams Gewest","region_FR":"Région flamande","inhabitants":"14 293","zip":2630},{"NIS_code":11002,"municipality_NL":"Antwerpen","municipality_FR":"Anvers","arrondissement_NL":"Antwerpen","arrondissement_FR":"Anvers","province_NL":"Antwerpen","province_FR":"Anvers","region_NL":"Vlaams Gewest","region_FR":"Région flamande","inhabitants":"525 935","zip":2000},{"NIS_code":11004,"municipality_NL":"Boechout","municipality_FR":"Boechout","arrondissement_NL":"Antwerpen","arrondissement_FR":"Anvers","province_NL":"Antwerpen","province_FR":"Anvers","region_NL":"Vlaams Gewest","region_FR":"Région flamande","inhabitants":"13 266","zip":2530},{"NIS_code":11005,"municipality_NL":"Boom","municipality_FR":"Boom","arrondissement_NL":"Antwerpen","arrondissement_FR":"Anvers","province_NL":"Antwerpen","province_FR":"Anvers","region_NL":"Vlaams Gewest","region_FR":"Région flamande","inhabitants":"18 244","zip":2850},{"NIS_code":11007,"municipality_NL":"Borsbeek","municipality_FR":"Borsbeek","arrondissement_NL":"Antwerpen","arrondissement_FR":"Anvers","province_NL":"Antwerpen","province_FR":"Anvers","region_NL":"Vlaams Gewest","region_FR":"Région flamande","inhabitants":"10 854","zip":2150},{"NIS_code":11008,"municipality_NL":"Brasschaat","municipality_FR":"Brasschaat","arrondissement_NL":"Antwerpen","arrondissement_FR":"Anvers","province_NL":"Antwerpen","province_FR":"Anvers","region_NL":"Vlaams Gewest","region_FR":"Région flamande","inhabitants":"37 946","zip":2930},{"NIS_code":11009,"municipality_NL":"Brecht","municipality_FR":"Brecht","arrondissement_NL":"Antwerpen","arrondissement_FR":"Anvers","province_NL":"Antwerpen","province_FR":"Anvers","region_NL":"Vlaams Gewest","region_FR":"Région flamande","inhabitants":"29 268","zip":2960},{"NIS_code":11013,"municipality_NL":"Edegem","municipality_FR":"Edegem","arrondissement_NL":"Antwerpen","arrondissement_FR":"Anvers","province_NL":"Antwerpen","province_FR":"Anvers","region_NL":"Vlaams Gewest","region_FR":"Région flamande","inhabitants":"22 063","zip":2650},{"NIS_code":11016,"municipality_NL":"Essen","municipality_FR":"Essen","arrondissement_NL":"Antwerpen","arrondissement_FR":"Anvers","province_NL":"Antwerpen","province_FR":"Anvers","region_NL":"Vlaams Gewest","region_FR":"Région flamande","inhabitants":"19 038","zip":2910},{"NIS_code":11018,"municipality_NL":"Hemiksem","municipality_FR":"Hemiksem","arrondissement_NL":"Antwerpen","arrondissement_FR":"Anvers","province_NL":"Antwerpen","province_FR":"Anvers","region_NL":"Vlaams Gewest","region_FR":"Région flamande","inhabitants":"11 559","zip":2620},{"NIS_code":11021,"municipality_NL":"Hove","municipality_FR":"Hove","arrondissement_NL":"Antwerpen","arrondissement_FR":"Anvers","province_NL":"Antwerpen","province_FR":"Anvers","region_NL":"Vlaams Gewest","region_FR":"Région flamande","inhabitants":"8 125","zip":2540},{"NIS_code":11022,"municipality_NL":"Kalmthout","municipality_FR":"Kalmthout","arrondissement_NL":"Antwerpen","arrondissement_FR":"Anvers","province_NL":"Antwerpen","province_FR":"Anvers","region_NL":"Vlaams Gewest","region_FR":"Région flamande","inhabitants":"18 695","zip":2920},{"NIS_code":11023,"municipality_NL":"Kapellen","municipality_FR":"Kapellen","arrondissement_NL":"Antwerpen","arrondissement_FR":"Anvers","province_NL":"Antwerpen","province_FR":"Anvers","region_NL":"Vlaams Gewest","region_FR":"Région flamande","inhabitants":"26 850","zip":2950},{"NIS_code":11024,"municipality_NL":"Kontich","municipality_FR":"Kontich","arrondissement_NL":"Antwerpen","arrondissement_FR":"Anvers","province_NL":"Antwerpen","province_FR":"Anvers","region_NL":"Vlaams Gewest","region_FR":"Région flamande","inhabitants":"21 115","zip":2550},{"NIS_code":11025,"municipality_NL":"Lint","municipality_FR":"Lint","arrondissement_NL":"Antwerpen","arrondissement_FR":"Anvers","province_NL":"Antwerpen","province_FR":"Anvers","region_NL":"Vlaams Gewest","region_FR":"Région flamande","inhabitants":"8 718","zip":2547},{"NIS_code":11029,"municipality_NL":"Mortsel","municipality_FR":"Mortsel","arrondissement_NL":"Antwerpen","arrondissement_FR":"Anvers","province_NL":"Antwerpen","province_FR":"Anvers","region_NL":"Vlaams Gewest","region_FR":"Région flamande","inhabitants":"26 099","zip":2640},{"NIS_code":11030,"municipality_NL":"Niel","municipality_FR":"Niel","arrondissement_NL":"Antwerpen","arrondissement_FR":"Anvers","province_NL":"Antwerpen","province_FR":"Anvers","region_NL":"Vlaams Gewest","region_FR":"Région flamande","inhabitants":"10 501","zip":2845},{"NIS_code":11035,"municipality_NL":"Ranst","municipality_FR":"Ranst","arrondissement_NL":"Antwerpen","arrondissement_FR":"Anvers","province_NL":"Antwerpen","province_FR":"Anvers","region_NL":"Vlaams Gewest","region_FR":"Région flamande","inhabitants":"19 008","zip":2520},{"NIS_code":11037,"municipality_NL":"Rumst","municipality_FR":"Rumst","arrondissement_NL":"Antwerpen","arrondissement_FR":"Anvers","province_NL":"Antwerpen","province_FR":"Anvers","region_NL":"Vlaams Gewest","region_FR":"Région flamande","inhabitants":"15 090","zip":2840},{"NIS_code":11038,"municipality_NL":"Schelle","municipality_FR":"Schelle","arrondissement_NL":"Antwerpen","arrondissement_FR":"Anvers","province_NL":"Antwerpen","province_FR":"Anvers","region_NL":"Vlaams Gewest","region_FR":"Région flamande","inhabitants":"8 518","zip":2627},{"NIS_code":11039,"municipality_NL":"Schilde","municipality_FR":"Schilde","arrondissement_NL":"Antwerpen","arrondissement_FR":"Anvers","province_NL":"Antwerpen","province_FR":"Anvers","region_NL":"Vlaams Gewest","region_FR":"Région flamande","inhabitants":"19 652","zip":2970},{"NIS_code":11040,"municipality_NL":"Schoten","municipality_FR":"Schoten","arrondissement_NL":"Antwerpen","arrondissement_FR":"Anvers","province_NL":"Antwerpen","province_FR":"Anvers","region_NL":"Vlaams Gewest","region_FR":"Région flamande","inhabitants":"34 517","zip":2900},{"NIS_code":11044,"municipality_NL":"Stabroek","municipality_FR":"Stabroek","arrondissement_NL":"Antwerpen","arrondissement_FR":"Anvers","province_NL":"Antwerpen","province_FR":"Anvers","region_NL":"Vlaams Gewest","region_FR":"Région flamande","inhabitants":"18 710","zip":2940},{"NIS_code":11050,"municipality_NL":"Wijnegem","municipality_FR":"Wijnegem","arrondissement_NL":"Antwerpen","arrondissement_FR":"Anvers","province_NL":"Antwerpen","province_FR":"Anvers","region_NL":"Vlaams Gewest","region_FR":"Région flamande","inhabitants":"9 816","zip":2110},{"NIS_code":11052,"municipality_NL":"Wommelgem","municipality_FR":"Wommelgem","arrondissement_NL":"Antwerpen","arrondissement_FR":"Anvers","province_NL":"Antwerpen","province_FR":"Anvers","region_NL":"Vlaams Gewest","region_FR":"Région flamande","inhabitants":"12 865","zip":2160},{"NIS_code":11053,"municipality_NL":"Wuustwezel","municipality_FR":"Wuustwezel","arrondissement_NL":"Antwerpen","arrondissement_FR":"Anvers","province_NL":"Antwerpen","province_FR":"Anvers","region_NL":"Vlaams Gewest","region_FR":"Région flamande","inhabitants":"20 970","zip":2990},{"NIS_code":11054,"municipality_NL":"Zandhoven","municipality_FR":"Zandhoven","arrondissement_NL":"Antwerpen","arrondissement_FR":"Anvers","province_NL":"Antwerpen","province_FR":"Anvers","region_NL":"Vlaams Gewest","region_FR":"Région flamande","inhabitants":"13 025","zip":2240},{"NIS_code":11055,"municipality_NL":"Zoersel","municipality_FR":"Zoersel","arrondissement_NL":"Antwerpen","arrondissement_FR":"Anvers","province_NL":"Antwerpen","province_FR":"Anvers","region_NL":"Vlaams Gewest","region_FR":"Région flamande","inhabitants":"21 944","zip":2980},{"NIS_code":11056,"municipality_NL":"Zwijndrecht","municipality_FR":"Zwijndrecht","arrondissement_NL":"Antwerpen","arrondissement_FR":"Anvers","province_NL":"Antwerpen","province_FR":"Anvers","region_NL":"Vlaams Gewest","region_FR":"Région flamande","inhabitants":"19 056","zip":2070},{"NIS_code":11057,"municipality_NL":"Malle","municipality_FR":"Malle","arrondissement_NL":"Antwerpen","arrondissement_FR":"Anvers","province_NL":"Antwerpen","province_FR":"Anvers","region_NL":"Vlaams Gewest","region_FR":"Région flamande","inhabitants":"15 561","zip":2390},{"NIS_code":12002,"municipality_NL":"Berlaar","municipality_FR":"Berlaar","arrondissement_NL":"Mechelen","arrondissement_FR":"Malines","province_NL":"Antwerpen","province_FR":"Anvers","region_NL":"Vlaams Gewest","region_FR":"Région flamande","inhabitants":"11 527","zip":2590},{"NIS_code":12005,"municipality_NL":"Bonheiden","municipality_FR":"Bonheiden","arrondissement_NL":"Mechelen","arrondissement_FR":"Malines","province_NL":"Antwerpen","province_FR":"Anvers","region_NL":"Vlaams Gewest","region_FR":"Région flamande","inhabitants":"15 010","zip":2820},{"NIS_code":12007,"municipality_NL":"Bornem","municipality_FR":"Bornem","arrondissement_NL":"Mechelen","arrondissement_FR":"Malines","province_NL":"Antwerpen","province_FR":"Anvers","region_NL":"Vlaams Gewest","region_FR":"Région flamande","inhabitants":"21 366","zip":2880},{"NIS_code":12009,"municipality_NL":"Duffel","municipality_FR":"Duffel","arrondissement_NL":"Mechelen","arrondissement_FR":"Malines","province_NL":"Antwerpen","province_FR":"Anvers","region_NL":"Vlaams Gewest","region_FR":"Région flamande","inhabitants":"17 491","zip":2570},{"NIS_code":12014,"municipality_NL":"Heist-op-den-Berg","municipality_FR":"Heist-op-den-Berg","arrondissement_NL":"Mechelen","arrondissement_FR":"Malines","province_NL":"Antwerpen","province_FR":"Anvers","region_NL":"Vlaams Gewest","region_FR":"Région flamande","inhabitants":"42 681","zip":2221},{"NIS_code":12021,"municipality_NL":"Lier","municipality_FR":"Lierre","arrondissement_NL":"Mechelen","arrondissement_FR":"Malines","province_NL":"Antwerpen","province_FR":"Anvers","region_NL":"Vlaams Gewest","region_FR":"Région flamande","inhabitants":"36 242","zip":2500},{"NIS_code":12025,"municipality_NL":"Mechelen","municipality_FR":"Malines","arrondissement_NL":"Mechelen","arrondissement_FR":"Malines","province_NL":"Antwerpen","province_FR":"Anvers","region_NL":"Vlaams Gewest","region_FR":"Région flamande","inhabitants":"86 616","zip":2801},{"NIS_code":12026,"municipality_NL":"Nijlen","municipality_FR":"Nijlen","arrondissement_NL":"Mechelen","arrondissement_FR":"Malines","province_NL":"Antwerpen","province_FR":"Anvers","region_NL":"Vlaams Gewest","region_FR":"Région flamande","inhabitants":"22 949","zip":2560},{"NIS_code":12029,"municipality_NL":"Putte","municipality_FR":"Putte","arrondissement_NL":"Mechelen","arrondissement_FR":"Malines","province_NL":"Antwerpen","province_FR":"Anvers","region_NL":"Vlaams Gewest","region_FR":"Région flamande","inhabitants":"17 800","zip":2580},{"NIS_code":12035,"municipality_NL":"Sint-Katelijne-Waver","municipality_FR":"Sint-Katelijne-Waver","arrondissement_NL":"Mechelen","arrondissement_FR":"Malines","province_NL":"Antwerpen","province_FR":"Anvers","region_NL":"Vlaams Gewest","region_FR":"Région flamande","inhabitants":"20 792","zip":2861},{"NIS_code":12040,"municipality_NL":"Willebroek","municipality_FR":"Willebroek","arrondissement_NL":"Mechelen","arrondissement_FR":"Malines","province_NL":"Antwerpen","province_FR":"Anvers","region_NL":"Vlaams Gewest","region_FR":"Région flamande","inhabitants":"26 462","zip":2830},{"NIS_code":"12041","municipality_NL":"Puurs-Sint-Amands","municipality_FR":"Puers-Saint-Amand","arrondissement_NL":"Mechelen","arrondissement_FR":"Malines","province_NL":"Antwerpen","province_FR":"Anvers","region_NL":"Vlaams Gewest","region_FR":"Région flamande","inhabitants":"25 882","zip":2870},{"NIS_code":13001,"municipality_NL":"Arendonk","municipality_FR":"Arendonk","arrondissement_NL":"Turnhout","arrondissement_FR":"Turnhout","province_NL":"Antwerpen","province_FR":"Anvers","region_NL":"Vlaams Gewest","region_FR":"Région flamande","inhabitants":"13 293","zip":2370},{"NIS_code":13002,"municipality_NL":"Baarle-Hertog","municipality_FR":"Baerle-Duc","arrondissement_NL":"Turnhout","arrondissement_FR":"Turnhout","province_NL":"Antwerpen","province_FR":"Anvers","region_NL":"Vlaams Gewest","region_FR":"Région flamande","inhabitants":"2 760","zip":2387},{"NIS_code":13003,"municipality_NL":"Balen","municipality_FR":"Balen","arrondissement_NL":"Turnhout","arrondissement_FR":"Turnhout","province_NL":"Antwerpen","province_FR":"Anvers","region_NL":"Vlaams Gewest","region_FR":"Région flamande","inhabitants":"22 618","zip":2490},{"NIS_code":13004,"municipality_NL":"Beerse","municipality_FR":"Beerse","arrondissement_NL":"Turnhout","arrondissement_FR":"Turnhout","province_NL":"Antwerpen","province_FR":"Anvers","region_NL":"Vlaams Gewest","region_FR":"Région flamande","inhabitants":"18 084","zip":2340},{"NIS_code":13006,"municipality_NL":"Dessel","municipality_FR":"Dessel","arrondissement_NL":"Turnhout","arrondissement_FR":"Turnhout","province_NL":"Antwerpen","province_FR":"Anvers","region_NL":"Vlaams Gewest","region_FR":"Région flamande","inhabitants":"9 598","zip":2480},{"NIS_code":13008,"municipality_NL":"Geel","municipality_FR":"Geel","arrondissement_NL":"Turnhout","arrondissement_FR":"Turnhout","province_NL":"Antwerpen","province_FR":"Anvers","region_NL":"Vlaams Gewest","region_FR":"Région flamande","inhabitants":"40 353","zip":2440},{"NIS_code":13010,"municipality_NL":"Grobbendonk","municipality_FR":"Grobbendonk","arrondissement_NL":"Turnhout","arrondissement_FR":"Turnhout","province_NL":"Antwerpen","province_FR":"Anvers","region_NL":"Vlaams Gewest","region_FR":"Région flamande","inhabitants":"11 155","zip":2288},{"NIS_code":13011,"municipality_NL":"Herentals","municipality_FR":"Herentals","arrondissement_NL":"Turnhout","arrondissement_FR":"Turnhout","province_NL":"Antwerpen","province_FR":"Anvers","region_NL":"Vlaams Gewest","region_FR":"Région flamande","inhabitants":"28 177","zip":2200},{"NIS_code":13012,"municipality_NL":"Herenthout","municipality_FR":"Herenthout","arrondissement_NL":"Turnhout","arrondissement_FR":"Turnhout","province_NL":"Antwerpen","province_FR":"Anvers","region_NL":"Vlaams Gewest","region_FR":"Région flamande","inhabitants":"9 061","zip":2270},{"NIS_code":13013,"municipality_NL":"Herselt","municipality_FR":"Herselt","arrondissement_NL":"Turnhout","arrondissement_FR":"Turnhout","province_NL":"Antwerpen","province_FR":"Anvers","region_NL":"Vlaams Gewest","region_FR":"Région flamande","inhabitants":"14 523","zip":2230},{"NIS_code":13014,"municipality_NL":"Hoogstraten","municipality_FR":"Hoogstraten","arrondissement_NL":"Turnhout","arrondissement_FR":"Turnhout","province_NL":"Antwerpen","province_FR":"Anvers","region_NL":"Vlaams Gewest","region_FR":"Région flamande","inhabitants":"21 355","zip":2320},{"NIS_code":13016,"municipality_NL":"Hulshout","municipality_FR":"Hulshout","arrondissement_NL":"Turnhout","arrondissement_FR":"Turnhout","province_NL":"Antwerpen","province_FR":"Anvers","region_NL":"Vlaams Gewest","region_FR":"Région flamande","inhabitants":"10 424","zip":2235},{"NIS_code":13017,"municipality_NL":"Kasterlee","municipality_FR":"Kasterlee","arrondissement_NL":"Turnhout","arrondissement_FR":"Turnhout","province_NL":"Antwerpen","province_FR":"Anvers","region_NL":"Vlaams Gewest","region_FR":"Région flamande","inhabitants":"18 655","zip":2460},{"NIS_code":13019,"municipality_NL":"Lille","municipality_FR":"Lille","arrondissement_NL":"Turnhout","arrondissement_FR":"Turnhout","province_NL":"Antwerpen","province_FR":"Anvers","region_NL":"Vlaams Gewest","region_FR":"Région flamande","inhabitants":"16 529","zip":2275},{"NIS_code":13021,"municipality_NL":"Meerhout","municipality_FR":"Meerhout","arrondissement_NL":"Turnhout","arrondissement_FR":"Turnhout","province_NL":"Antwerpen","province_FR":"Anvers","region_NL":"Vlaams Gewest","region_FR":"Région flamande","inhabitants":"10 361","zip":2450},{"NIS_code":13023,"municipality_NL":"Merksplas","municipality_FR":"Merksplas","arrondissement_NL":"Turnhout","arrondissement_FR":"Turnhout","province_NL":"Antwerpen","province_FR":"Anvers","region_NL":"Vlaams Gewest","region_FR":"Région flamande","inhabitants":"8 600","zip":2330},{"NIS_code":13025,"municipality_NL":"Mol","municipality_FR":"Mol","arrondissement_NL":"Turnhout","arrondissement_FR":"Turnhout","province_NL":"Antwerpen","province_FR":"Anvers","region_NL":"Vlaams Gewest","region_FR":"Région flamande","inhabitants":"36 825","zip":2400},{"NIS_code":13029,"municipality_NL":"Olen","municipality_FR":"Olen","arrondissement_NL":"Turnhout","arrondissement_FR":"Turnhout","province_NL":"Antwerpen","province_FR":"Anvers","region_NL":"Vlaams Gewest","region_FR":"Région flamande","inhabitants":"12 505","zip":2250},{"NIS_code":13031,"municipality_NL":"Oud-Turnhout","municipality_FR":"Oud-Turnhout","arrondissement_NL":"Turnhout","arrondissement_FR":"Turnhout","province_NL":"Antwerpen","province_FR":"Anvers","region_NL":"Vlaams Gewest","region_FR":"Région flamande","inhabitants":"13 662","zip":2360},{"NIS_code":13035,"municipality_NL":"Ravels","municipality_FR":"Ravels","arrondissement_NL":"Turnhout","arrondissement_FR":"Turnhout","province_NL":"Antwerpen","province_FR":"Anvers","region_NL":"Vlaams Gewest","region_FR":"Région flamande","inhabitants":"15 009","zip":2382},{"NIS_code":13036,"municipality_NL":"Retie","municipality_FR":"Retie","arrondissement_NL":"Turnhout","arrondissement_FR":"Turnhout","province_NL":"Antwerpen","province_FR":"Anvers","region_NL":"Vlaams Gewest","region_FR":"Région flamande","inhabitants":"11 396","zip":2470},{"NIS_code":13037,"municipality_NL":"Rijkevorsel","municipality_FR":"Rijkevorsel","arrondissement_NL":"Turnhout","arrondissement_FR":"Turnhout","province_NL":"Antwerpen","province_FR":"Anvers","region_NL":"Vlaams Gewest","region_FR":"Région flamande","inhabitants":"12 060","zip":2310},{"NIS_code":13040,"municipality_NL":"Turnhout","municipality_FR":"Turnhout","arrondissement_NL":"Turnhout","arrondissement_FR":"Turnhout","province_NL":"Antwerpen","province_FR":"Anvers","region_NL":"Vlaams Gewest","region_FR":"Région flamande","inhabitants":"44 664","zip":2300},{"NIS_code":13044,"municipality_NL":"Vorselaar","municipality_FR":"Vorselaar","arrondissement_NL":"Turnhout","arrondissement_FR":"Turnhout","province_NL":"Antwerpen","province_FR":"Anvers","region_NL":"Vlaams Gewest","region_FR":"Région flamande","inhabitants":"7 861","zip":2290},{"NIS_code":13046,"municipality_NL":"Vosselaar","municipality_FR":"Vosselaar","arrondissement_NL":"Turnhout","arrondissement_FR":"Turnhout","province_NL":"Antwerpen","province_FR":"Anvers","region_NL":"Vlaams Gewest","region_FR":"Région flamande","inhabitants":"11 187","zip":2350},{"NIS_code":13049,"municipality_NL":"Westerlo","municipality_FR":"Westerlo","arrondissement_NL":"Turnhout","arrondissement_FR":"Turnhout","province_NL":"Antwerpen","province_FR":"Anvers","region_NL":"Vlaams Gewest","region_FR":"Région flamande","inhabitants":"25 051","zip":2260},{"NIS_code":13053,"municipality_NL":"Laakdal","municipality_FR":"Laakdal","arrondissement_NL":"Turnhout","arrondissement_FR":"Turnhout","province_NL":"Antwerpen","province_FR":"Anvers","region_NL":"Vlaams Gewest","region_FR":"Région flamande","inhabitants":"16 101","zip":2430},{"NIS_code":21001,"municipality_NL":"Anderlecht","municipality_FR":"Anderlecht","arrondissement_NL":"Brussel-Hoofdstad","arrondissement_FR":"Bruxelles-Capitale","province_NL":"","province_FR":"","region_NL":"Brussels Hoofdstedelijk Gewest","region_FR":"Région de Bruxelles-Capitale","inhabitants":"119 714","zip":1070},{"NIS_code":21002,"municipality_NL":"Oudergem","municipality_FR":"Auderghem","arrondissement_NL":"Brussel-Hoofdstad","arrondissement_FR":"Bruxelles-Capitale","province_NL":"","province_FR":"","region_NL":"Brussels Hoofdstedelijk Gewest","region_FR":"Région de Bruxelles-Capitale","inhabitants":"34 013","zip":1160},{"NIS_code":21003,"municipality_NL":"Sint-Agatha-Berchem","municipality_FR":"Berchem-Sainte-Agathe","arrondissement_NL":"Brussel-Hoofdstad","arrondissement_FR":"Bruxelles-Capitale","province_NL":"","province_FR":"","region_NL":"Brussels Hoofdstedelijk Gewest","region_FR":"Région de Bruxelles-Capitale","inhabitants":"25 179","zip":1082},{"NIS_code":21004,"municipality_NL":"Brussel","municipality_FR":"Bruxelles","arrondissement_NL":"Brussel-Hoofdstad","arrondissement_FR":"Bruxelles-Capitale","province_NL":"","province_FR":"","region_NL":"Brussels Hoofdstedelijk Gewest","region_FR":"Région de Bruxelles-Capitale","inhabitants":"181 726","zip":1000},{"NIS_code":21005,"municipality_NL":"Etterbeek","municipality_FR":"Etterbeek","arrondissement_NL":"Brussel-Hoofdstad","arrondissement_FR":"Bruxelles-Capitale","province_NL":"","province_FR":"","region_NL":"Brussels Hoofdstedelijk Gewest","region_FR":"Région de Bruxelles-Capitale","inhabitants":"48 367","zip":1040},{"NIS_code":21006,"municipality_NL":"Evere","municipality_FR":"Evere","arrondissement_NL":"Brussel-Hoofdstad","arrondissement_FR":"Bruxelles-Capitale","province_NL":"","province_FR":"","region_NL":"Brussels Hoofdstedelijk Gewest","region_FR":"Région de Bruxelles-Capitale","inhabitants":"41 763","zip":1140},{"NIS_code":21007,"municipality_NL":"Vorst","municipality_FR":"Forest","arrondissement_NL":"Brussel-Hoofdstad","arrondissement_FR":"Bruxelles-Capitale","province_NL":"","province_FR":"","region_NL":"Brussels Hoofdstedelijk Gewest","region_FR":"Région de Bruxelles-Capitale","inhabitants":"56 289","zip":1190},{"NIS_code":21008,"municipality_NL":"Ganshoren","municipality_FR":"Ganshoren","arrondissement_NL":"Brussel-Hoofdstad","arrondissement_FR":"Bruxelles-Capitale","province_NL":"","province_FR":"","region_NL":"Brussels Hoofdstedelijk Gewest","region_FR":"Région de Bruxelles-Capitale","inhabitants":"24 902","zip":1083},{"NIS_code":21009,"municipality_NL":"Elsene","municipality_FR":"Ixelles","arrondissement_NL":"Brussel-Hoofdstad","arrondissement_FR":"Bruxelles-Capitale","province_NL":"","province_FR":"","region_NL":"Brussels Hoofdstedelijk Gewest","region_FR":"Région de Bruxelles-Capitale","inhabitants":"86 876","zip":1050},{"NIS_code":21010,"municipality_NL":"Jette","municipality_FR":"Jette","arrondissement_NL":"Brussel-Hoofdstad","arrondissement_FR":"Bruxelles-Capitale","province_NL":"","province_FR":"","region_NL":"Brussels Hoofdstedelijk Gewest","region_FR":"Région de Bruxelles-Capitale","inhabitants":"52 536","zip":1090},{"NIS_code":21011,"municipality_NL":"Koekelberg","municipality_FR":"Koekelberg","arrondissement_NL":"Brussel-Hoofdstad","arrondissement_FR":"Bruxelles-Capitale","province_NL":"","province_FR":"","region_NL":"Brussels Hoofdstedelijk Gewest","region_FR":"Région de Bruxelles-Capitale","inhabitants":"21 990","zip":1081},{"NIS_code":21012,"municipality_NL":"Sint-Jans-Molenbeek","municipality_FR":"Molenbeek-Saint-Jean","arrondissement_NL":"Brussel-Hoofdstad","arrondissement_FR":"Bruxelles-Capitale","province_NL":"","province_FR":"","region_NL":"Brussels Hoofdstedelijk Gewest","region_FR":"Région de Bruxelles-Capitale","inhabitants":"97 462","zip":1080},{"NIS_code":21013,"municipality_NL":"Sint-Gillis","municipality_FR":"Saint-Gilles","arrondissement_NL":"Brussel-Hoofdstad","arrondissement_FR":"Bruxelles-Capitale","province_NL":"","province_FR":"","region_NL":"Brussels Hoofdstedelijk Gewest","region_FR":"Région de Bruxelles-Capitale","inhabitants":"50 267","zip":1060},{"NIS_code":21014,"municipality_NL":"Sint-Joost-ten-Node","municipality_FR":"Saint-Josse-ten-Noode","arrondissement_NL":"Brussel-Hoofdstad","arrondissement_FR":"Bruxelles-Capitale","province_NL":"","province_FR":"","region_NL":"Brussels Hoofdstedelijk Gewest","region_FR":"Région de Bruxelles-Capitale","inhabitants":"27 457","zip":1210},{"NIS_code":21015,"municipality_NL":"Schaarbeek","municipality_FR":"Schaerbeek","arrondissement_NL":"Brussel-Hoofdstad","arrondissement_FR":"Bruxelles-Capitale","province_NL":"","province_FR":"","region_NL":"Brussels Hoofdstedelijk Gewest","region_FR":"Région de Bruxelles-Capitale","inhabitants":"133 309","zip":1030},{"NIS_code":21016,"municipality_NL":"Ukkel","municipality_FR":"Uccle","arrondissement_NL":"Brussel-Hoofdstad","arrondissement_FR":"Bruxelles-Capitale","province_NL":"","province_FR":"","region_NL":"Brussels Hoofdstedelijk Gewest","region_FR":"Région de Bruxelles-Capitale","inhabitants":"83 024","zip":1180},{"NIS_code":21017,"municipality_NL":"Watermaal-Bosvoorde","municipality_FR":"Watermael-Boitsfort","arrondissement_NL":"Brussel-Hoofdstad","arrondissement_FR":"Bruxelles-Capitale","province_NL":"","province_FR":"","region_NL":"Brussels Hoofdstedelijk Gewest","region_FR":"Région de Bruxelles-Capitale","inhabitants":"25 184","zip":1170},{"NIS_code":21018,"municipality_NL":"Sint-Lambrechts-Woluwe","municipality_FR":"Woluwe-Saint-Lambert","arrondissement_NL":"Brussel-Hoofdstad","arrondissement_FR":"Bruxelles-Capitale","province_NL":"","province_FR":"","region_NL":"Brussels Hoofdstedelijk Gewest","region_FR":"Région de Bruxelles-Capitale","inhabitants":"56 660","zip":1200},{"NIS_code":21019,"municipality_NL":"Sint-Pieters-Woluwe","municipality_FR":"Woluwe-Saint-Pierre","arrondissement_NL":"Brussel-Hoofdstad","arrondissement_FR":"Bruxelles-Capitale","province_NL":"","province_FR":"","region_NL":"Brussels Hoofdstedelijk Gewest","region_FR":"Région de Bruxelles-Capitale","inhabitants":"41 824","zip":1150},{"NIS_code":23002,"municipality_NL":"Asse","municipality_FR":"Asse","arrondissement_NL":"Halle-Vilvoorde","arrondissement_FR":"Hal-Vilvorde","province_NL":"Vlaams-Brabant","province_FR":"Brabant flamand","region_NL":"Vlaams Gewest","region_FR":"Région flamande","inhabitants":"33 158","zip":1730},{"NIS_code":23003,"municipality_NL":"Beersel","municipality_FR":"Beersel","arrondissement_NL":"Halle-Vilvoorde","arrondissement_FR":"Hal-Vilvorde","province_NL":"Vlaams-Brabant","province_FR":"Brabant flamand","region_NL":"Vlaams Gewest","region_FR":"Région flamande","inhabitants":"25 251","zip":1652},{"NIS_code":23009,"municipality_NL":"Bever","municipality_FR":"Biévène","arrondissement_NL":"Halle-Vilvoorde","arrondissement_FR":"Hal-Vilvorde","province_NL":"Vlaams-Brabant","province_FR":"Brabant flamand","region_NL":"Vlaams Gewest","region_FR":"Région flamande","inhabitants":"2 159","zip":1547},{"NIS_code":23016,"municipality_NL":"Dilbeek","municipality_FR":"Dilbeek","arrondissement_NL":"Halle-Vilvoorde","arrondissement_FR":"Hal-Vilvorde","province_NL":"Vlaams-Brabant","province_FR":"Brabant flamand","region_NL":"Vlaams Gewest","region_FR":"Région flamande","inhabitants":"42 847","zip":1700},{"NIS_code":23023,"municipality_NL":"Galmaarden","municipality_FR":"Gammerages","arrondissement_NL":"Halle-Vilvoorde","arrondissement_FR":"Hal-Vilvorde","province_NL":"Vlaams-Brabant","province_FR":"Brabant flamand","region_NL":"Vlaams Gewest","region_FR":"Région flamande","inhabitants":"8 746","zip":1570},{"NIS_code":23024,"municipality_NL":"Gooik","municipality_FR":"Gooik","arrondissement_NL":"Halle-Vilvoorde","arrondissement_FR":"Hal-Vilvorde","province_NL":"Vlaams-Brabant","province_FR":"Brabant flamand","region_NL":"Vlaams Gewest","region_FR":"Région flamande","inhabitants":"9 170","zip":1755},{"NIS_code":23025,"municipality_NL":"Grimbergen","municipality_FR":"Grimbergen","arrondissement_NL":"Halle-Vilvoorde","arrondissement_FR":"Hal-Vilvorde","province_NL":"Vlaams-Brabant","province_FR":"Brabant flamand","region_NL":"Vlaams Gewest","region_FR":"Région flamande","inhabitants":"37 542","zip":1852},{"NIS_code":23027,"municipality_NL":"Halle","municipality_FR":"Hal","arrondissement_NL":"Halle-Vilvoorde","arrondissement_FR":"Hal-Vilvorde","province_NL":"Vlaams-Brabant","province_FR":"Brabant flamand","region_NL":"Vlaams Gewest","region_FR":"Région flamande","inhabitants":"39 540","zip":1501},{"NIS_code":23032,"municipality_NL":"Herne","municipality_FR":"Herne","arrondissement_NL":"Halle-Vilvoorde","arrondissement_FR":"Hal-Vilvorde","province_NL":"Vlaams-Brabant","province_FR":"Brabant flamand","region_NL":"Vlaams Gewest","region_FR":"Région flamande","inhabitants":"6 665","zip":1540},{"NIS_code":23033,"municipality_NL":"Hoeilaart","municipality_FR":"Hoeilaart","arrondissement_NL":"Halle-Vilvoorde","arrondissement_FR":"Hal-Vilvorde","province_NL":"Vlaams-Brabant","province_FR":"Brabant flamand","region_NL":"Vlaams Gewest","region_FR":"Région flamande","inhabitants":"11 321","zip":1560},{"NIS_code":23038,"municipality_NL":"Kampenhout","municipality_FR":"Kampenhout","arrondissement_NL":"Halle-Vilvoorde","arrondissement_FR":"Hal-Vilvorde","province_NL":"Vlaams-Brabant","province_FR":"Brabant flamand","region_NL":"Vlaams Gewest","region_FR":"Région flamande","inhabitants":"11 972","zip":1910},{"NIS_code":23039,"municipality_NL":"Kapelle-op-den-Bos","municipality_FR":"Kapelle-op-den-Bos","arrondissement_NL":"Halle-Vilvoorde","arrondissement_FR":"Hal-Vilvorde","province_NL":"Vlaams-Brabant","province_FR":"Brabant flamand","region_NL":"Vlaams Gewest","region_FR":"Région flamande","inhabitants":"9 413","zip":1880},{"NIS_code":23044,"municipality_NL":"Liedekerke","municipality_FR":"Liedekerke","arrondissement_NL":"Halle-Vilvoorde","arrondissement_FR":"Hal-Vilvorde","province_NL":"Vlaams-Brabant","province_FR":"Brabant flamand","region_NL":"Vlaams Gewest","region_FR":"Région flamande","inhabitants":"13 295","zip":1770},{"NIS_code":23045,"municipality_NL":"Londerzeel","municipality_FR":"Londerzeel","arrondissement_NL":"Halle-Vilvoorde","arrondissement_FR":"Hal-Vilvorde","province_NL":"Vlaams-Brabant","province_FR":"Brabant flamand","region_NL":"Vlaams Gewest","region_FR":"Région flamande","inhabitants":"18 749","zip":1840},{"NIS_code":23047,"municipality_NL":"Machelen","municipality_FR":"Machelen","arrondissement_NL":"Halle-Vilvoorde","arrondissement_FR":"Hal-Vilvorde","province_NL":"Vlaams-Brabant","province_FR":"Brabant flamand","region_NL":"Vlaams Gewest","region_FR":"Région flamande","inhabitants":"15 469","zip":1831},{"NIS_code":23050,"municipality_NL":"Meise","municipality_FR":"Meise","arrondissement_NL":"Halle-Vilvoorde","arrondissement_FR":"Hal-Vilvorde","province_NL":"Vlaams-Brabant","province_FR":"Brabant flamand","region_NL":"Vlaams Gewest","region_FR":"Région flamande","inhabitants":"19 411","zip":1860},{"NIS_code":23052,"municipality_NL":"Merchtem","municipality_FR":"Merchtem","arrondissement_NL":"Halle-Vilvoorde","arrondissement_FR":"Hal-Vilvorde","province_NL":"Vlaams-Brabant","province_FR":"Brabant flamand","region_NL":"Vlaams Gewest","region_FR":"Région flamande","inhabitants":"16 583","zip":1785},{"NIS_code":23060,"municipality_NL":"Opwijk","municipality_FR":"Opwijk","arrondissement_NL":"Halle-Vilvoorde","arrondissement_FR":"Hal-Vilvorde","province_NL":"Vlaams-Brabant","province_FR":"Brabant flamand","region_NL":"Vlaams Gewest","region_FR":"Région flamande","inhabitants":"14 547","zip":1745},{"NIS_code":23062,"municipality_NL":"Overijse","municipality_FR":"Overijse","arrondissement_NL":"Halle-Vilvoorde","arrondissement_FR":"Hal-Vilvorde","province_NL":"Vlaams-Brabant","province_FR":"Brabant flamand","region_NL":"Vlaams Gewest","region_FR":"Région flamande","inhabitants":"25 403","zip":3090},{"NIS_code":23064,"municipality_NL":"Pepingen","municipality_FR":"Pepingen","arrondissement_NL":"Halle-Vilvoorde","arrondissement_FR":"Hal-Vilvorde","province_NL":"Vlaams-Brabant","province_FR":"Brabant flamand","region_NL":"Vlaams Gewest","region_FR":"Région flamande","inhabitants":"4 479","zip":1673},{"NIS_code":23077,"municipality_NL":"Sint-Pieters-Leeuw","municipality_FR":"Sint-Pieters-Leeuw","arrondissement_NL":"Halle-Vilvoorde","arrondissement_FR":"Hal-Vilvorde","province_NL":"Vlaams-Brabant","province_FR":"Brabant flamand","region_NL":"Vlaams Gewest","region_FR":"Région flamande","inhabitants":"34 228","zip":1600},{"NIS_code":23081,"municipality_NL":"Steenokkerzeel","municipality_FR":"Steenokkerzeel","arrondissement_NL":"Halle-Vilvoorde","arrondissement_FR":"Hal-Vilvorde","province_NL":"Vlaams-Brabant","province_FR":"Brabant flamand","region_NL":"Vlaams Gewest","region_FR":"Région flamande","inhabitants":"12 135","zip":1820},{"NIS_code":23086,"municipality_NL":"Ternat","municipality_FR":"Ternat","arrondissement_NL":"Halle-Vilvoorde","arrondissement_FR":"Hal-Vilvorde","province_NL":"Vlaams-Brabant","province_FR":"Brabant flamand","region_NL":"Vlaams Gewest","region_FR":"Région flamande","inhabitants":"15 746","zip":1742},{"NIS_code":23088,"municipality_NL":"Vilvoorde","municipality_FR":"Vilvorde","arrondissement_NL":"Halle-Vilvoorde","arrondissement_FR":"Hal-Vilvorde","province_NL":"Vlaams-Brabant","province_FR":"Brabant flamand","region_NL":"Vlaams Gewest","region_FR":"Région flamande","inhabitants":"44 727","zip":1800},{"NIS_code":23094,"municipality_NL":"Zaventem","municipality_FR":"Zaventem","arrondissement_NL":"Halle-Vilvoorde","arrondissement_FR":"Hal-Vilvorde","province_NL":"Vlaams-Brabant","province_FR":"Brabant flamand","region_NL":"Vlaams Gewest","region_FR":"Région flamande","inhabitants":"34 368","zip":1930},{"NIS_code":23096,"municipality_NL":"Zemst","municipality_FR":"Zemst","arrondissement_NL":"Halle-Vilvoorde","arrondissement_FR":"Hal-Vilvorde","province_NL":"Vlaams-Brabant","province_FR":"Brabant flamand","region_NL":"Vlaams Gewest","region_FR":"Région flamande","inhabitants":"23 358","zip":1982},{"NIS_code":23097,"municipality_NL":"Roosdaal","municipality_FR":"Roosdaal","arrondissement_NL":"Halle-Vilvoorde","arrondissement_FR":"Hal-Vilvorde","province_NL":"Vlaams-Brabant","province_FR":"Brabant flamand","region_NL":"Vlaams Gewest","region_FR":"Région flamande","inhabitants":"11 631","zip":1761},{"NIS_code":23098,"municipality_NL":"Drogenbos","municipality_FR":"Drogenbos","arrondissement_NL":"Halle-Vilvoorde","arrondissement_FR":"Hal-Vilvorde","province_NL":"Vlaams-Brabant","province_FR":"Brabant flamand","region_NL":"Vlaams Gewest","region_FR":"Région flamande","inhabitants":"5 689","zip":1620},{"NIS_code":23099,"municipality_NL":"Kraainem","municipality_FR":"Kraainem","arrondissement_NL":"Halle-Vilvoorde","arrondissement_FR":"Hal-Vilvorde","province_NL":"Vlaams-Brabant","province_FR":"Brabant flamand","region_NL":"Vlaams Gewest","region_FR":"Région flamande","inhabitants":"13 730","zip":1950},{"NIS_code":23100,"municipality_NL":"Linkebeek","municipality_FR":"Linkebeek","arrondissement_NL":"Halle-Vilvoorde","arrondissement_FR":"Hal-Vilvorde","province_NL":"Vlaams-Brabant","province_FR":"Brabant flamand","region_NL":"Vlaams Gewest","region_FR":"Région flamande","inhabitants":"4 671","zip":1630},{"NIS_code":23101,"municipality_NL":"Sint-Genesius-Rode","municipality_FR":"Rhode-Saint-Genèse","arrondissement_NL":"Halle-Vilvoorde","arrondissement_FR":"Hal-Vilvorde","province_NL":"Vlaams-Brabant","province_FR":"Brabant flamand","region_NL":"Vlaams Gewest","region_FR":"Région flamande","inhabitants":"18 387","zip":1640},{"NIS_code":23102,"municipality_NL":"Wemmel","municipality_FR":"Wemmel","arrondissement_NL":"Halle-Vilvoorde","arrondissement_FR":"Hal-Vilvorde","province_NL":"Vlaams-Brabant","province_FR":"Brabant flamand","region_NL":"Vlaams Gewest","region_FR":"Région flamande","inhabitants":"16 491","zip":1780},{"NIS_code":23103,"municipality_NL":"Wezembeek-Oppem","municipality_FR":"Wezembeek-Oppem","arrondissement_NL":"Halle-Vilvoorde","arrondissement_FR":"Hal-Vilvorde","province_NL":"Vlaams-Brabant","province_FR":"Brabant flamand","region_NL":"Vlaams Gewest","region_FR":"Région flamande","inhabitants":"14 258","zip":1970},{"NIS_code":23104,"municipality_NL":"Lennik","municipality_FR":"Lennik","arrondissement_NL":"Halle-Vilvoorde","arrondissement_FR":"Hal-Vilvorde","province_NL":"Vlaams-Brabant","province_FR":"Brabant flamand","region_NL":"Vlaams Gewest","region_FR":"Région flamande","inhabitants":"9 074","zip":1750},{"NIS_code":23105,"municipality_NL":"Affligem","municipality_FR":"Affligem","arrondissement_NL":"Halle-Vilvoorde","arrondissement_FR":"Hal-Vilvorde","province_NL":"Vlaams-Brabant","province_FR":"Brabant flamand","region_NL":"Vlaams Gewest","region_FR":"Région flamande","inhabitants":"13 228","zip":1790},{"NIS_code":24001,"municipality_NL":"Aarschot","municipality_FR":"Aarschot","arrondissement_NL":"Leuven","arrondissement_FR":"Louvain","province_NL":"Vlaams-Brabant","province_FR":"Brabant flamand","region_NL":"Vlaams Gewest","region_FR":"Région flamande","inhabitants":"30 115","zip":3200},{"NIS_code":24007,"municipality_NL":"Begijnendijk","municipality_FR":"Begijnendijk","arrondissement_NL":"Leuven","arrondissement_FR":"Louvain","province_NL":"Vlaams-Brabant","province_FR":"Brabant flamand","region_NL":"Vlaams Gewest","region_FR":"Région flamande","inhabitants":"10 114","zip":3130},{"NIS_code":24008,"municipality_NL":"Bekkevoort","municipality_FR":"Bekkevoort","arrondissement_NL":"Leuven","arrondissement_FR":"Louvain","province_NL":"Vlaams-Brabant","province_FR":"Brabant flamand","region_NL":"Vlaams Gewest","region_FR":"Région flamande","inhabitants":"6 306","zip":3460},{"NIS_code":24009,"municipality_NL":"Bertem","municipality_FR":"Bertem","arrondissement_NL":"Leuven","arrondissement_FR":"Louvain","province_NL":"Vlaams-Brabant","province_FR":"Brabant flamand","region_NL":"Vlaams Gewest","region_FR":"Région flamande","inhabitants":"10 007","zip":3060},{"NIS_code":24011,"municipality_NL":"Bierbeek","municipality_FR":"Bierbeek","arrondissement_NL":"Leuven","arrondissement_FR":"Louvain","province_NL":"Vlaams-Brabant","province_FR":"Brabant flamand","region_NL":"Vlaams Gewest","region_FR":"Région flamande","inhabitants":"10 083","zip":3360},{"NIS_code":24014,"municipality_NL":"Boortmeerbeek","municipality_FR":"Boortmeerbeek","arrondissement_NL":"Leuven","arrondissement_FR":"Louvain","province_NL":"Vlaams-Brabant","province_FR":"Brabant flamand","region_NL":"Vlaams Gewest","region_FR":"Région flamande","inhabitants":"12 516","zip":3190},{"NIS_code":24016,"municipality_NL":"Boutersem","municipality_FR":"Boutersem","arrondissement_NL":"Leuven","arrondissement_FR":"Louvain","province_NL":"Vlaams-Brabant","province_FR":"Brabant flamand","region_NL":"Vlaams Gewest","region_FR":"Région flamande","inhabitants":"8 242","zip":3370},{"NIS_code":24020,"municipality_NL":"Diest","municipality_FR":"Diest","arrondissement_NL":"Leuven","arrondissement_FR":"Louvain","province_NL":"Vlaams-Brabant","province_FR":"Brabant flamand","region_NL":"Vlaams Gewest","region_FR":"Région flamande","inhabitants":"23 998","zip":2100},{"NIS_code":24028,"municipality_NL":"Geetbets","municipality_FR":"Geetbets","arrondissement_NL":"Leuven","arrondissement_FR":"Louvain","province_NL":"Vlaams-Brabant","province_FR":"Brabant flamand","region_NL":"Vlaams Gewest","region_FR":"Région flamande","inhabitants":"6 118","zip":3450},{"NIS_code":24033,"municipality_NL":"Haacht","municipality_FR":"Haacht","arrondissement_NL":"Leuven","arrondissement_FR":"Louvain","province_NL":"Vlaams-Brabant","province_FR":"Brabant flamand","region_NL":"Vlaams Gewest","region_FR":"Région flamande","inhabitants":"14 577","zip":3150},{"NIS_code":24038,"municipality_NL":"Herent","municipality_FR":"Herent","arrondissement_NL":"Leuven","arrondissement_FR":"Louvain","province_NL":"Vlaams-Brabant","province_FR":"Brabant flamand","region_NL":"Vlaams Gewest","region_FR":"Région flamande","inhabitants":"21 682","zip":3020},{"NIS_code":24041,"municipality_NL":"Hoegaarden","municipality_FR":"Hoegaarden","arrondissement_NL":"Leuven","arrondissement_FR":"Louvain","province_NL":"Vlaams-Brabant","province_FR":"Brabant flamand","region_NL":"Vlaams Gewest","region_FR":"Région flamande","inhabitants":"6 886","zip":3320},{"NIS_code":24043,"municipality_NL":"Holsbeek","municipality_FR":"Holsbeek","arrondissement_NL":"Leuven","arrondissement_FR":"Louvain","province_NL":"Vlaams-Brabant","province_FR":"Brabant flamand","region_NL":"Vlaams Gewest","region_FR":"Région flamande","inhabitants":"10 019","zip":3220},{"NIS_code":24045,"municipality_NL":"Huldenberg","municipality_FR":"Huldenberg","arrondissement_NL":"Leuven","arrondissement_FR":"Louvain","province_NL":"Vlaams-Brabant","province_FR":"Brabant flamand","region_NL":"Vlaams Gewest","region_FR":"Région flamande","inhabitants":"9 921","zip":3040},{"NIS_code":24048,"municipality_NL":"Keerbergen","municipality_FR":"Keerbergen","arrondissement_NL":"Leuven","arrondissement_FR":"Louvain","province_NL":"Vlaams-Brabant","province_FR":"Brabant flamand","region_NL":"Vlaams Gewest","region_FR":"Région flamande","inhabitants":"12 850","zip":3140},{"NIS_code":24054,"municipality_NL":"Kortenaken","municipality_FR":"Kortenaken","arrondissement_NL":"Leuven","arrondissement_FR":"Louvain","province_NL":"Vlaams-Brabant","province_FR":"Brabant flamand","region_NL":"Vlaams Gewest","region_FR":"Région flamande","inhabitants":"7 875","zip":3471},{"NIS_code":24055,"municipality_NL":"Kortenberg","municipality_FR":"Kortenberg","arrondissement_NL":"Leuven","arrondissement_FR":"Louvain","province_NL":"Vlaams-Brabant","province_FR":"Brabant flamand","region_NL":"Vlaams Gewest","region_FR":"Région flamande","inhabitants":"20 279","zip":3071},{"NIS_code":24059,"municipality_NL":"Landen","municipality_FR":"Landen","arrondissement_NL":"Leuven","arrondissement_FR":"Louvain","province_NL":"Vlaams-Brabant","province_FR":"Brabant flamand","region_NL":"Vlaams Gewest","region_FR":"Région flamande","inhabitants":"15 951","zip":3404},{"NIS_code":24062,"municipality_NL":"Leuven","municipality_FR":"Louvain","arrondissement_NL":"Leuven","arrondissement_FR":"Louvain","province_NL":"Vlaams-Brabant","province_FR":"Brabant flamand","region_NL":"Vlaams Gewest","region_FR":"Région flamande","inhabitants":"101 624","zip":3001},{"NIS_code":24066,"municipality_NL":"Lubbeek","municipality_FR":"Lubbeek","arrondissement_NL":"Leuven","arrondissement_FR":"Louvain","province_NL":"Vlaams-Brabant","province_FR":"Brabant flamand","region_NL":"Vlaams Gewest","region_FR":"Région flamande","inhabitants":"14 559","zip":3211},{"NIS_code":24086,"municipality_NL":"Oud-Heverlee","municipality_FR":"Oud-Heverlee","arrondissement_NL":"Leuven","arrondissement_FR":"Louvain","province_NL":"Vlaams-Brabant","province_FR":"Brabant flamand","region_NL":"Vlaams Gewest","region_FR":"Région flamande","inhabitants":"11 112","zip":3052},{"NIS_code":24094,"municipality_NL":"Rotselaar","municipality_FR":"Rotselaar","arrondissement_NL":"Leuven","arrondissement_FR":"Louvain","province_NL":"Vlaams-Brabant","province_FR":"Brabant flamand","region_NL":"Vlaams Gewest","region_FR":"Région flamande","inhabitants":"16 793","zip":3110},{"NIS_code":24104,"municipality_NL":"Tervuren","municipality_FR":"Tervuren","arrondissement_NL":"Leuven","arrondissement_FR":"Louvain","province_NL":"Vlaams-Brabant","province_FR":"Brabant flamand","region_NL":"Vlaams Gewest","region_FR":"Région flamande","inhabitants":"22 422","zip":3080},{"NIS_code":24107,"municipality_NL":"Tienen","municipality_FR":"Tirlemont","arrondissement_NL":"Leuven","arrondissement_FR":"Louvain","province_NL":"Vlaams-Brabant","province_FR":"Brabant flamand","region_NL":"Vlaams Gewest","region_FR":"Région flamande","inhabitants":"34 975","zip":3300},{"NIS_code":24109,"municipality_NL":"Tremelo","municipality_FR":"Tremelo","arrondissement_NL":"Leuven","arrondissement_FR":"Louvain","province_NL":"Vlaams-Brabant","province_FR":"Brabant flamand","region_NL":"Vlaams Gewest","region_FR":"Région flamande","inhabitants":"14 914","zip":3128},{"NIS_code":24130,"municipality_NL":"Zoutleeuw","municipality_FR":"Léau","arrondissement_NL":"Leuven","arrondissement_FR":"Louvain","province_NL":"Vlaams-Brabant","province_FR":"Brabant flamand","region_NL":"Vlaams Gewest","region_FR":"Région flamande","inhabitants":"8 480","zip":3440},{"NIS_code":24133,"municipality_NL":"Linter","municipality_FR":"Linter","arrondissement_NL":"Leuven","arrondissement_FR":"Louvain","province_NL":"Vlaams-Brabant","province_FR":"Brabant flamand","region_NL":"Vlaams Gewest","region_FR":"Région flamande","inhabitants":"7 269","zip":3350},{"NIS_code":24134,"municipality_NL":"Scherpenheuvel-Zichem","municipality_FR":"Montaigu-Zichem","arrondissement_NL":"Leuven","arrondissement_FR":"Louvain","province_NL":"Vlaams-Brabant","province_FR":"Brabant flamand","region_NL":"Vlaams Gewest","region_FR":"Région flamande","inhabitants":"23 029","zip":3271},{"NIS_code":24135,"municipality_NL":"Tielt-Winge","municipality_FR":"Tielt-Winge","arrondissement_NL":"Leuven","arrondissement_FR":"Louvain","province_NL":"Vlaams-Brabant","province_FR":"Brabant flamand","region_NL":"Vlaams Gewest","region_FR":"Région flamande","inhabitants":"10 747","zip":3390},{"NIS_code":24137,"municipality_NL":"Glabbeek","municipality_FR":"Glabbeek","arrondissement_NL":"Leuven","arrondissement_FR":"Louvain","province_NL":"Vlaams-Brabant","province_FR":"Brabant flamand","region_NL":"Vlaams Gewest","region_FR":"Région flamande","inhabitants":"5 271","zip":3384},{"NIS_code":25005,"municipality_NL":"Bevekom","municipality_FR":"Beauvechain","arrondissement_NL":"Nijvel","arrondissement_FR":"Nivelles","province_NL":"Waals-Brabant","province_FR":"Brabant wallon","region_NL":"Waals Gewest","region_FR":"Région wallonne","inhabitants":"7 243","zip":1320},{"NIS_code":25014,"municipality_NL":"Eigenbrakel","municipality_FR":"Braine-l’Alleud","arrondissement_NL":"Nijvel","arrondissement_FR":"Nivelles","province_NL":"Waals-Brabant","province_FR":"Brabant wallon","region_NL":"Waals Gewest","region_FR":"Région wallonne","inhabitants":"40 008","zip":1420},{"NIS_code":25015,"municipality_NL":"Kasteelbrakel","municipality_FR":"Braine-le-Château","arrondissement_NL":"Nijvel","arrondissement_FR":"Nivelles","province_NL":"Waals-Brabant","province_FR":"Brabant wallon","region_NL":"Waals Gewest","region_FR":"Région wallonne","inhabitants":"10 549","zip":1440},{"NIS_code":25018,"municipality_NL":"Chaumont-Gistoux","municipality_FR":"Chaumont-Gistoux","arrondissement_NL":"Nijvel","arrondissement_FR":"Nivelles","province_NL":"Waals-Brabant","province_FR":"Brabant wallon","region_NL":"Waals Gewest","region_FR":"Région wallonne","inhabitants":"11 798","zip":1325},{"NIS_code":25023,"municipality_NL":"Court-Saint-Etienne","municipality_FR":"Court-Saint-Etienne","arrondissement_NL":"Nijvel","arrondissement_FR":"Nivelles","province_NL":"Waals-Brabant","province_FR":"Brabant wallon","region_NL":"Waals Gewest","region_FR":"Région wallonne","inhabitants":"10 540","zip":1490},{"NIS_code":25031,"municipality_NL":"Genepiën","municipality_FR":"Genappe","arrondissement_NL":"Nijvel","arrondissement_FR":"Nivelles","province_NL":"Waals-Brabant","province_FR":"Brabant wallon","region_NL":"Waals Gewest","region_FR":"Région wallonne","inhabitants":"15 427","zip":1470},{"NIS_code":25037,"municipality_NL":"Graven","municipality_FR":"Grez-Doiceau","arrondissement_NL":"Nijvel","arrondissement_FR":"Nivelles","province_NL":"Waals-Brabant","province_FR":"Brabant wallon","region_NL":"Waals Gewest","region_FR":"Région wallonne","inhabitants":"13 668","zip":1390},{"NIS_code":25043,"municipality_NL":"Incourt","municipality_FR":"Incourt","arrondissement_NL":"Nijvel","arrondissement_FR":"Nivelles","province_NL":"Waals-Brabant","province_FR":"Brabant wallon","region_NL":"Waals Gewest","region_FR":"Région wallonne","inhabitants":"5 487","zip":1315},{"NIS_code":25044,"municipality_NL":"Itter","municipality_FR":"Ittre","arrondissement_NL":"Nijvel","arrondissement_FR":"Nivelles","province_NL":"Waals-Brabant","province_FR":"Brabant wallon","region_NL":"Waals Gewest","region_FR":"Région wallonne","inhabitants":"6 889","zip":1461},{"NIS_code":25048,"municipality_NL":"Geldenaken","municipality_FR":"Jodoigne","arrondissement_NL":"Nijvel","arrondissement_FR":"Nivelles","province_NL":"Waals-Brabant","province_FR":"Brabant wallon","region_NL":"Waals Gewest","region_FR":"Région wallonne","inhabitants":"14 123","zip":1370},{"NIS_code":25050,"municipality_NL":"Terhulpen","municipality_FR":"La Hulpe","arrondissement_NL":"Nijvel","arrondissement_FR":"Nivelles","province_NL":"Waals-Brabant","province_FR":"Brabant wallon","region_NL":"Waals Gewest","region_FR":"Région wallonne","inhabitants":"7 343","zip":1310},{"NIS_code":25068,"municipality_NL":"Mont-Saint-Guibert","municipality_FR":"Mont-Saint-Guibert","arrondissement_NL":"Nijvel","arrondissement_FR":"Nivelles","province_NL":"Waals-Brabant","province_FR":"Brabant wallon","region_NL":"Waals Gewest","region_FR":"Région wallonne","inhabitants":"7 771","zip":1435},{"NIS_code":25072,"municipality_NL":"Nijvel","municipality_FR":"Nivelles","arrondissement_NL":"Nijvel","arrondissement_FR":"Nivelles","province_NL":"Waals-Brabant","province_FR":"Brabant wallon","region_NL":"Waals Gewest","region_FR":"Région wallonne","inhabitants":"28 734","zip":1401},{"NIS_code":25084,"municipality_NL":"Perwijs","municipality_FR":"Perwez","arrondissement_NL":"Nijvel","arrondissement_FR":"Nivelles","province_NL":"Waals-Brabant","province_FR":"Brabant wallon","region_NL":"Waals Gewest","region_FR":"Région wallonne","inhabitants":"9 303","zip":1360},{"NIS_code":25091,"municipality_NL":"Rixensart","municipality_FR":"Rixensart","arrondissement_NL":"Nijvel","arrondissement_FR":"Nivelles","province_NL":"Waals-Brabant","province_FR":"Brabant wallon","region_NL":"Waals Gewest","region_FR":"Région wallonne","inhabitants":"22 558","zip":1332},{"NIS_code":25105,"municipality_NL":"Tubeke","municipality_FR":"Tubize","arrondissement_NL":"Nijvel","arrondissement_FR":"Nivelles","province_NL":"Waals-Brabant","province_FR":"Brabant wallon","region_NL":"Waals Gewest","region_FR":"Région wallonne","inhabitants":"26 233","zip":1480},{"NIS_code":25107,"municipality_NL":"Villers-la-Ville","municipality_FR":"Villers-la-Ville","arrondissement_NL":"Nijvel","arrondissement_FR":"Nivelles","province_NL":"Waals-Brabant","province_FR":"Brabant wallon","region_NL":"Waals Gewest","region_FR":"Région wallonne","inhabitants":"10 702","zip":1495},{"NIS_code":25110,"municipality_NL":"Waterloo","municipality_FR":"Waterloo","arrondissement_NL":"Nijvel","arrondissement_FR":"Nivelles","province_NL":"Waals-Brabant","province_FR":"Brabant wallon","region_NL":"Waals Gewest","region_FR":"Région wallonne","inhabitants":"30 328","zip":1410},{"NIS_code":25112,"municipality_NL":"Waver","municipality_FR":"Wavre","arrondissement_NL":"Nijvel","arrondissement_FR":"Nivelles","province_NL":"Waals-Brabant","province_FR":"Brabant wallon","region_NL":"Waals Gewest","region_FR":"Région wallonne","inhabitants":"34 396","zip":1301},{"NIS_code":25117,"municipality_NL":"Chastre","municipality_FR":"Chastre","arrondissement_NL":"Nijvel","arrondissement_FR":"Nivelles","province_NL":"Waals-Brabant","province_FR":"Brabant wallon","region_NL":"Waals Gewest","region_FR":"Région wallonne","inhabitants":"7 647","zip":1450},{"NIS_code":25118,"municipality_NL":"Hélécine","municipality_FR":"Hélécine","arrondissement_NL":"Nijvel","arrondissement_FR":"Nivelles","province_NL":"Waals-Brabant","province_FR":"Brabant wallon","region_NL":"Waals Gewest","region_FR":"Région wallonne","inhabitants":"3 553","zip":1357},{"NIS_code":25119,"municipality_NL":"Lasne","municipality_FR":"Lasne","arrondissement_NL":"Nijvel","arrondissement_FR":"Nivelles","province_NL":"Waals-Brabant","province_FR":"Brabant wallon","region_NL":"Waals Gewest","region_FR":"Région wallonne","inhabitants":"14 244","zip":1380},{"NIS_code":25120,"municipality_NL":"Orp-Jauche","municipality_FR":"Orp-Jauche","arrondissement_NL":"Nijvel","arrondissement_FR":"Nivelles","province_NL":"Waals-Brabant","province_FR":"Brabant wallon","region_NL":"Waals Gewest","region_FR":"Région wallonne","inhabitants":"8 924","zip":1350},{"NIS_code":25121,"municipality_NL":"Ottignies-Louvain-la-Neuve","municipality_FR":"Ottignies-Louvain-la-Neuve","arrondissement_NL":"Nijvel","arrondissement_FR":"Nivelles","province_NL":"Waals-Brabant","province_FR":"Brabant wallon","region_NL":"Waals Gewest","region_FR":"Région wallonne","inhabitants":"31 443","zip":1341},{"NIS_code":25122,"municipality_NL":"Ramillies","municipality_FR":"Ramillies","arrondissement_NL":"Nijvel","arrondissement_FR":"Nivelles","province_NL":"Waals-Brabant","province_FR":"Brabant wallon","region_NL":"Waals Gewest","region_FR":"Région wallonne","inhabitants":"6 522","zip":1367},{"NIS_code":25123,"municipality_NL":"Rebecq","municipality_FR":"Rebecq","arrondissement_NL":"Nijvel","arrondissement_FR":"Nivelles","province_NL":"Waals-Brabant","province_FR":"Brabant wallon","region_NL":"Waals Gewest","region_FR":"Région wallonne","inhabitants":"10 979","zip":1430},{"NIS_code":25124,"municipality_NL":"Walhain","municipality_FR":"Walhain","arrondissement_NL":"Nijvel","arrondissement_FR":"Nivelles","province_NL":"Waals-Brabant","province_FR":"Brabant wallon","region_NL":"Waals Gewest","region_FR":"Région wallonne","inhabitants":"7 187","zip":1457},{"NIS_code":31003,"municipality_NL":"Beernem","municipality_FR":"Beernem","arrondissement_NL":"Brugge","arrondissement_FR":"Bruges","province_NL":"West-Vlaanderen","province_FR":"Flandre occidentale","region_NL":"Vlaams Gewest","region_FR":"Région flamande","inhabitants":"15 763","zip":8730},{"NIS_code":31004,"municipality_NL":"Blankenberge","municipality_FR":"Blankenberge","arrondissement_NL":"Brugge","arrondissement_FR":"Bruges","province_NL":"West-Vlaanderen","province_FR":"Flandre occidentale","region_NL":"Vlaams Gewest","region_FR":"Région flamande","inhabitants":"20 436","zip":8370},{"NIS_code":31005,"municipality_NL":"Brugge","municipality_FR":"Bruges","arrondissement_NL":"Brugge","arrondissement_FR":"Bruges","province_NL":"West-Vlaanderen","province_FR":"Flandre occidentale","region_NL":"Vlaams Gewest","region_FR":"Région flamande","inhabitants":"118 325","zip":8310},{"NIS_code":31006,"municipality_NL":"Damme","municipality_FR":"Damme","arrondissement_NL":"Brugge","arrondissement_FR":"Bruges","province_NL":"West-Vlaanderen","province_FR":"Flandre occidentale","region_NL":"Vlaams Gewest","region_FR":"Région flamande","inhabitants":"10 993","zip":8340},{"NIS_code":31012,"municipality_NL":"Jabbeke","municipality_FR":"Jabbeke","arrondissement_NL":"Brugge","arrondissement_FR":"Bruges","province_NL":"West-Vlaanderen","province_FR":"Flandre occidentale","region_NL":"Vlaams Gewest","region_FR":"Région flamande","inhabitants":"13 865","zip":8490},{"NIS_code":31022,"municipality_NL":"Oostkamp","municipality_FR":"Oostkamp","arrondissement_NL":"Brugge","arrondissement_FR":"Bruges","province_NL":"West-Vlaanderen","province_FR":"Flandre occidentale","region_NL":"Vlaams Gewest","region_FR":"Région flamande","inhabitants":"23 698","zip":8020},{"NIS_code":31033,"municipality_NL":"Torhout","municipality_FR":"Torhout","arrondissement_NL":"Brugge","arrondissement_FR":"Bruges","province_NL":"West-Vlaanderen","province_FR":"Flandre occidentale","region_NL":"Vlaams Gewest","region_FR":"Région flamande","inhabitants":"20 463","zip":8820},{"NIS_code":31040,"municipality_NL":"Zedelgem","municipality_FR":"Zedelgem","arrondissement_NL":"Brugge","arrondissement_FR":"Bruges","province_NL":"West-Vlaanderen","province_FR":"Flandre occidentale","region_NL":"Vlaams Gewest","region_FR":"Région flamande","inhabitants":"22 819","zip":8211},{"NIS_code":31042,"municipality_NL":"Zuienkerke","municipality_FR":"Zuienkerke","arrondissement_NL":"Brugge","arrondissement_FR":"Bruges","province_NL":"West-Vlaanderen","province_FR":"Flandre occidentale","region_NL":"Vlaams Gewest","region_FR":"Région flamande","inhabitants":"2 721","zip":8377},{"NIS_code":31043,"municipality_NL":"Knokke-Heist","municipality_FR":"Knokke-Heist","arrondissement_NL":"Brugge","arrondissement_FR":"Bruges","province_NL":"West-Vlaanderen","province_FR":"Flandre occidentale","region_NL":"Vlaams Gewest","region_FR":"Région flamande","inhabitants":"33 126","zip":8300},{"NIS_code":32003,"municipality_NL":"Diksmuide","municipality_FR":"Dixmude","arrondissement_NL":"Diksmuide","arrondissement_FR":"Dixmude","province_NL":"West-Vlaanderen","province_FR":"Flandre occidentale","region_NL":"Vlaams Gewest","region_FR":"Région flamande","inhabitants":"16 743","zip":8600},{"NIS_code":32006,"municipality_NL":"Houthulst","municipality_FR":"Houthulst","arrondissement_NL":"Diksmuide","arrondissement_FR":"Dixmude","province_NL":"West-Vlaanderen","province_FR":"Flandre occidentale","region_NL":"Vlaams Gewest","region_FR":"Région flamande","inhabitants":"10 098","zip":8650},{"NIS_code":32010,"municipality_NL":"Koekelare","municipality_FR":"Koekelare","arrondissement_NL":"Diksmuide","arrondissement_FR":"Dixmude","province_NL":"West-Vlaanderen","province_FR":"Flandre occidentale","region_NL":"Vlaams Gewest","region_FR":"Région flamande","inhabitants":"8 777","zip":8680},{"NIS_code":32011,"municipality_NL":"Kortemark","municipality_FR":"Kortemark","arrondissement_NL":"Diksmuide","arrondissement_FR":"Dixmude","province_NL":"West-Vlaanderen","province_FR":"Flandre occidentale","region_NL":"Vlaams Gewest","region_FR":"Région flamande","inhabitants":"12 616","zip":8610},{"NIS_code":32030,"municipality_NL":"Lo-Reninge","municipality_FR":"Lo-Reninge","arrondissement_NL":"Diksmuide","arrondissement_FR":"Dixmude","province_NL":"West-Vlaanderen","province_FR":"Flandre occidentale","region_NL":"Vlaams Gewest","region_FR":"Région flamande","inhabitants":"3 291","zip":8647},{"NIS_code":33011,"municipality_NL":"Ieper","municipality_FR":"Ypres","arrondissement_NL":"Ieper","arrondissement_FR":"Ypres","province_NL":"West-Vlaanderen","province_FR":"Flandre occidentale","region_NL":"Vlaams Gewest","region_FR":"Région flamande","inhabitants":"34 845","zip":8904},{"NIS_code":33016,"municipality_NL":"Mesen","municipality_FR":"Messines","arrondissement_NL":"Ieper","arrondissement_FR":"Ypres","province_NL":"West-Vlaanderen","province_FR":"Flandre occidentale","region_NL":"Vlaams Gewest","region_FR":"Région flamande","inhabitants":"1 065","zip":8957},{"NIS_code":33021,"municipality_NL":"Poperinge","municipality_FR":"Poperinge","arrondissement_NL":"Ieper","arrondissement_FR":"Ypres","province_NL":"West-Vlaanderen","province_FR":"Flandre occidentale","region_NL":"Vlaams Gewest","region_FR":"Région flamande","inhabitants":"19 702","zip":8972},{"NIS_code":33029,"municipality_NL":"Wervik","municipality_FR":"Wervik","arrondissement_NL":"Ieper","arrondissement_FR":"Ypres","province_NL":"West-Vlaanderen","province_FR":"Flandre occidentale","region_NL":"Vlaams Gewest","region_FR":"Région flamande","inhabitants":"18 767","zip":8940},{"NIS_code":33037,"municipality_NL":"Zonnebeke","municipality_FR":"Zonnebeke","arrondissement_NL":"Ieper","arrondissement_FR":"Ypres","province_NL":"West-Vlaanderen","province_FR":"Flandre occidentale","region_NL":"Vlaams Gewest","region_FR":"Région flamande","inhabitants":"12 481","zip":8980},{"NIS_code":33039,"municipality_NL":"Heuvelland","municipality_FR":"Heuvelland","arrondissement_NL":"Ieper","arrondissement_FR":"Ypres","province_NL":"West-Vlaanderen","province_FR":"Flandre occidentale","region_NL":"Vlaams Gewest","region_FR":"Région flamande","inhabitants":"7 909","zip":8951},{"NIS_code":33040,"municipality_NL":"Langemark-Poelkapelle","municipality_FR":"Langemark-Poelkapelle","arrondissement_NL":"Ieper","arrondissement_FR":"Ypres","province_NL":"West-Vlaanderen","province_FR":"Flandre occidentale","region_NL":"Vlaams Gewest","region_FR":"Région flamande","inhabitants":"7 819","zip":8920},{"NIS_code":33041,"municipality_NL":"Vleteren","municipality_FR":"Vleteren","arrondissement_NL":"Ieper","arrondissement_FR":"Ypres","province_NL":"West-Vlaanderen","province_FR":"Flandre occidentale","region_NL":"Vlaams Gewest","region_FR":"Région flamande","inhabitants":"3 691","zip":8640},{"NIS_code":34002,"municipality_NL":"Anzegem","municipality_FR":"Anzegem","arrondissement_NL":"Kortrijk","arrondissement_FR":"Courtrai","province_NL":"West-Vlaanderen","province_FR":"Flandre occidentale","region_NL":"Vlaams Gewest","region_FR":"Région flamande","inhabitants":"14 716","zip":8570},{"NIS_code":34003,"municipality_NL":"Avelgem","municipality_FR":"Avelgem","arrondissement_NL":"Kortrijk","arrondissement_FR":"Courtrai","province_NL":"West-Vlaanderen","province_FR":"Flandre occidentale","region_NL":"Vlaams Gewest","region_FR":"Région flamande","inhabitants":"10 158","zip":8580},{"NIS_code":34009,"municipality_NL":"Deerlijk","municipality_FR":"Deerlijk","arrondissement_NL":"Kortrijk","arrondissement_FR":"Courtrai","province_NL":"West-Vlaanderen","province_FR":"Flandre occidentale","region_NL":"Vlaams Gewest","region_FR":"Région flamande","inhabitants":"11 946","zip":8540},{"NIS_code":34013,"municipality_NL":"Harelbeke","municipality_FR":"Harelbeke","arrondissement_NL":"Kortrijk","arrondissement_FR":"Courtrai","province_NL":"West-Vlaanderen","province_FR":"Flandre occidentale","region_NL":"Vlaams Gewest","region_FR":"Région flamande","inhabitants":"28 158","zip":8531},{"NIS_code":34022,"municipality_NL":"Kortrijk","municipality_FR":"Courtrai","arrondissement_NL":"Kortrijk","arrondissement_FR":"Courtrai","province_NL":"West-Vlaanderen","province_FR":"Flandre occidentale","region_NL":"Vlaams Gewest","region_FR":"Région flamande","inhabitants":"76 735","zip":8511},{"NIS_code":34023,"municipality_NL":"Kuurne","municipality_FR":"Kuurne","arrondissement_NL":"Kortrijk","arrondissement_FR":"Courtrai","province_NL":"West-Vlaanderen","province_FR":"Flandre occidentale","region_NL":"Vlaams Gewest","region_FR":"Région flamande","inhabitants":"13 484","zip":8520},{"NIS_code":34025,"municipality_NL":"Lendelede","municipality_FR":"Lendelede","arrondissement_NL":"Kortrijk","arrondissement_FR":"Courtrai","province_NL":"West-Vlaanderen","province_FR":"Flandre occidentale","region_NL":"Vlaams Gewest","region_FR":"Région flamande","inhabitants":"5 747","zip":8860},{"NIS_code":34027,"municipality_NL":"Menen","municipality_FR":"Menin","arrondissement_NL":"Kortrijk","arrondissement_FR":"Courtrai","province_NL":"West-Vlaanderen","province_FR":"Flandre occidentale","region_NL":"Vlaams Gewest","region_FR":"Région flamande","inhabitants":"33 385","zip":8930},{"NIS_code":34040,"municipality_NL":"Waregem","municipality_FR":"Waregem","arrondissement_NL":"Kortrijk","arrondissement_FR":"Courtrai","province_NL":"West-Vlaanderen","province_FR":"Flandre occidentale","region_NL":"Vlaams Gewest","region_FR":"Région flamande","inhabitants":"38 266","zip":8792},{"NIS_code":34041,"municipality_NL":"Wevelgem","municipality_FR":"Wevelgem","arrondissement_NL":"Kortrijk","arrondissement_FR":"Courtrai","province_NL":"West-Vlaanderen","province_FR":"Flandre occidentale","region_NL":"Vlaams Gewest","region_FR":"Région flamande","inhabitants":"31 406","zip":8560},{"NIS_code":34042,"municipality_NL":"Zwevegem","municipality_FR":"Zwevegem","arrondissement_NL":"Kortrijk","arrondissement_FR":"Courtrai","province_NL":"West-Vlaanderen","province_FR":"Flandre occidentale","region_NL":"Vlaams Gewest","region_FR":"Région flamande","inhabitants":"24 656","zip":8551},{"NIS_code":34043,"municipality_NL":"Spiere-Helkijn","municipality_FR":"Espierres-Helchin","arrondissement_NL":"Kortrijk","arrondissement_FR":"Courtrai","province_NL":"West-Vlaanderen","province_FR":"Flandre occidentale","region_NL":"Vlaams Gewest","region_FR":"Région flamande","inhabitants":"2 049","zip":8587},{"NIS_code":35002,"municipality_NL":"Bredene","municipality_FR":"Bredene","arrondissement_NL":"Oostende","arrondissement_FR":"Ostende","province_NL":"West-Vlaanderen","province_FR":"Flandre occidentale","region_NL":"Vlaams Gewest","region_FR":"Région flamande","inhabitants":"18 095","zip":8450},{"NIS_code":35005,"municipality_NL":"Gistel","municipality_FR":"Gistel","arrondissement_NL":"Oostende","arrondissement_FR":"Ostende","province_NL":"West-Vlaanderen","province_FR":"Flandre occidentale","region_NL":"Vlaams Gewest","region_FR":"Région flamande","inhabitants":"12 178","zip":8470},{"NIS_code":35006,"municipality_NL":"Ichtegem","municipality_FR":"Ichtegem","arrondissement_NL":"Oostende","arrondissement_FR":"Ostende","province_NL":"West-Vlaanderen","province_FR":"Flandre occidentale","region_NL":"Vlaams Gewest","region_FR":"Région flamande","inhabitants":"14 050","zip":8480},{"NIS_code":35011,"municipality_NL":"Middelkerke","municipality_FR":"Middelkerke","arrondissement_NL":"Oostende","arrondissement_FR":"Ostende","province_NL":"West-Vlaanderen","province_FR":"Flandre occidentale","region_NL":"Vlaams Gewest","region_FR":"Région flamande","inhabitants":"19 336","zip":8432},{"NIS_code":35013,"municipality_NL":"Oostende","municipality_FR":"Ostende","arrondissement_NL":"Oostende","arrondissement_FR":"Ostende","province_NL":"West-Vlaanderen","province_FR":"Flandre occidentale","region_NL":"Vlaams Gewest","region_FR":"Région flamande","inhabitants":"71 494","zip":8400},{"NIS_code":35014,"municipality_NL":"Oudenburg","municipality_FR":"Oudenburg","arrondissement_NL":"Oostende","arrondissement_FR":"Ostende","province_NL":"West-Vlaanderen","province_FR":"Flandre occidentale","region_NL":"Vlaams Gewest","region_FR":"Région flamande","inhabitants":"9 381","zip":8460},{"NIS_code":35029,"municipality_NL":"De Haan","municipality_FR":"De Haan","arrondissement_NL":"Oostende","arrondissement_FR":"Ostende","province_NL":"West-Vlaanderen","province_FR":"Flandre occidentale","region_NL":"Vlaams Gewest","region_FR":"Région flamande","inhabitants":"12 666","zip":8420},{"NIS_code":36006,"municipality_NL":"Hooglede","municipality_FR":"Hooglede","arrondissement_NL":"Roeselare","arrondissement_FR":"Roulers","province_NL":"West-Vlaanderen","province_FR":"Flandre occidentale","region_NL":"Vlaams Gewest","region_FR":"Région flamande","inhabitants":"9 987","zip":8830},{"NIS_code":36007,"municipality_NL":"Ingelmunster","municipality_FR":"Ingelmunster","arrondissement_NL":"Roeselare","arrondissement_FR":"Roulers","province_NL":"West-Vlaanderen","province_FR":"Flandre occidentale","region_NL":"Vlaams Gewest","region_FR":"Région flamande","inhabitants":"10 996","zip":8770},{"NIS_code":36008,"municipality_NL":"Izegem","municipality_FR":"Izegem","arrondissement_NL":"Roeselare","arrondissement_FR":"Roulers","province_NL":"West-Vlaanderen","province_FR":"Flandre occidentale","region_NL":"Vlaams Gewest","region_FR":"Région flamande","inhabitants":"28 018","zip":8870},{"NIS_code":36010,"municipality_NL":"Ledegem","municipality_FR":"Ledegem","arrondissement_NL":"Roeselare","arrondissement_FR":"Roulers","province_NL":"West-Vlaanderen","province_FR":"Flandre occidentale","region_NL":"Vlaams Gewest","region_FR":"Région flamande","inhabitants":"9 695","zip":8880},{"NIS_code":36011,"municipality_NL":"Lichtervelde","municipality_FR":"Lichtervelde","arrondissement_NL":"Roeselare","arrondissement_FR":"Roulers","province_NL":"West-Vlaanderen","province_FR":"Flandre occidentale","region_NL":"Vlaams Gewest","region_FR":"Région flamande","inhabitants":"8 926","zip":8810},{"NIS_code":36012,"municipality_NL":"Moorslede","municipality_FR":"Moorslede","arrondissement_NL":"Roeselare","arrondissement_FR":"Roulers","province_NL":"West-Vlaanderen","province_FR":"Flandre occidentale","region_NL":"Vlaams Gewest","region_FR":"Région flamande","inhabitants":"11 250","zip":8890},{"NIS_code":36015,"municipality_NL":"Roeselare","municipality_FR":"Roulers","arrondissement_NL":"Roeselare","arrondissement_FR":"Roulers","province_NL":"West-Vlaanderen","province_FR":"Flandre occidentale","region_NL":"Vlaams Gewest","region_FR":"Région flamande","inhabitants":"62 954","zip":8800},{"NIS_code":36019,"municipality_NL":"Staden","municipality_FR":"Staden","arrondissement_NL":"Roeselare","arrondissement_FR":"Roulers","province_NL":"West-Vlaanderen","province_FR":"Flandre occidentale","region_NL":"Vlaams Gewest","region_FR":"Région flamande","inhabitants":"11 489","zip":8840},{"NIS_code":37002,"municipality_NL":"Dentergem","municipality_FR":"Dentergem","arrondissement_NL":"Tielt","arrondissement_FR":"Tielt","province_NL":"West-Vlaanderen","province_FR":"Flandre occidentale","region_NL":"Vlaams Gewest","region_FR":"Région flamande","inhabitants":"8 555","zip":8720},{"NIS_code":37007,"municipality_NL":"Meulebeke","municipality_FR":"Meulebeke","arrondissement_NL":"Tielt","arrondissement_FR":"Tielt","province_NL":"West-Vlaanderen","province_FR":"Flandre occidentale","region_NL":"Vlaams Gewest","region_FR":"Région flamande","inhabitants":"10 860","zip":8760},{"NIS_code":37010,"municipality_NL":"Oostrozebeke","municipality_FR":"Oostrozebeke","arrondissement_NL":"Tielt","arrondissement_FR":"Tielt","province_NL":"West-Vlaanderen","province_FR":"Flandre occidentale","region_NL":"Vlaams Gewest","region_FR":"Région flamande","inhabitants":"7 932","zip":8780},{"NIS_code":37011,"municipality_NL":"Pittem","municipality_FR":"Pittem","arrondissement_NL":"Tielt","arrondissement_FR":"Tielt","province_NL":"West-Vlaanderen","province_FR":"Flandre occidentale","region_NL":"Vlaams Gewest","region_FR":"Région flamande","inhabitants":"6 738","zip":8740},{"NIS_code":37012,"municipality_NL":"Ruiselede","municipality_FR":"Ruiselede","arrondissement_NL":"Tielt","arrondissement_FR":"Tielt","province_NL":"West-Vlaanderen","province_FR":"Flandre occidentale","region_NL":"Vlaams Gewest","region_FR":"Région flamande","inhabitants":"5 358","zip":8755},{"NIS_code":37015,"municipality_NL":"Tielt","municipality_FR":"Tielt","arrondissement_NL":"Tielt","arrondissement_FR":"Tielt","province_NL":"West-Vlaanderen","province_FR":"Flandre occidentale","region_NL":"Vlaams Gewest","region_FR":"Région flamande","inhabitants":"20 502","zip":8700},{"NIS_code":37017,"municipality_NL":"Wielsbeke","municipality_FR":"Wielsbeke","arrondissement_NL":"Tielt","arrondissement_FR":"Tielt","province_NL":"West-Vlaanderen","province_FR":"Flandre occidentale","region_NL":"Vlaams Gewest","region_FR":"Région flamande","inhabitants":"9 641","zip":8710},{"NIS_code":37018,"municipality_NL":"Wingene","municipality_FR":"Wingene","arrondissement_NL":"Tielt","arrondissement_FR":"Tielt","province_NL":"West-Vlaanderen","province_FR":"Flandre occidentale","region_NL":"Vlaams Gewest","region_FR":"Région flamande","inhabitants":"14 263","zip":8750},{"NIS_code":37020,"municipality_NL":"Ardooie","municipality_FR":"Ardooie","arrondissement_NL":"Tielt","arrondissement_FR":"Tielt","province_NL":"West-Vlaanderen","province_FR":"Flandre occidentale","region_NL":"Vlaams Gewest","region_FR":"Région flamande","inhabitants":"9 056","zip":8850},{"NIS_code":38002,"municipality_NL":"Alveringem","municipality_FR":"Alveringem","arrondissement_NL":"Veurne","arrondissement_FR":"Furnes","province_NL":"West-Vlaanderen","province_FR":"Flandre occidentale","region_NL":"Vlaams Gewest","region_FR":"Région flamande","inhabitants":"5 047","zip":8690},{"NIS_code":38008,"municipality_NL":"De Panne","municipality_FR":"La Panne","arrondissement_NL":"Veurne","arrondissement_FR":"Furnes","province_NL":"West-Vlaanderen","province_FR":"Flandre occidentale","region_NL":"Vlaams Gewest","region_FR":"Région flamande","inhabitants":"11 176","zip":8660},{"NIS_code":38014,"municipality_NL":"Koksijde","municipality_FR":"Koksijde","arrondissement_NL":"Veurne","arrondissement_FR":"Furnes","province_NL":"West-Vlaanderen","province_FR":"Flandre occidentale","region_NL":"Vlaams Gewest","region_FR":"Région flamande","inhabitants":"21 910","zip":8670},{"NIS_code":38016,"municipality_NL":"Nieuwpoort","municipality_FR":"Nieuport","arrondissement_NL":"Veurne","arrondissement_FR":"Furnes","province_NL":"West-Vlaanderen","province_FR":"Flandre occidentale","region_NL":"Vlaams Gewest","region_FR":"Région flamande","inhabitants":"11 621","zip":8301},{"NIS_code":38025,"municipality_NL":"Veurne","municipality_FR":"Furnes","arrondissement_NL":"Veurne","arrondissement_FR":"Furnes","province_NL":"West-Vlaanderen","province_FR":"Flandre occidentale","region_NL":"Vlaams Gewest","region_FR":"Région flamande","inhabitants":"11 903","zip":8630},{"NIS_code":41002,"municipality_NL":"Aalst","municipality_FR":"Alost","arrondissement_NL":"Aalst","arrondissement_FR":"Alost","province_NL":"Oost-Vlaanderen","province_FR":"Flandre orientale","region_NL":"Vlaams Gewest","region_FR":"Région flamande","inhabitants":"86 445","zip":9310},{"NIS_code":41011,"municipality_NL":"Denderleeuw","municipality_FR":"Denderleeuw","arrondissement_NL":"Aalst","arrondissement_FR":"Alost","province_NL":"Oost-Vlaanderen","province_FR":"Flandre orientale","region_NL":"Vlaams Gewest","region_FR":"Région flamande","inhabitants":"20 338","zip":9470},{"NIS_code":41018,"municipality_NL":"Geraardsbergen","municipality_FR":"Grammont","arrondissement_NL":"Aalst","arrondissement_FR":"Alost","province_NL":"Oost-Vlaanderen","province_FR":"Flandre orientale","region_NL":"Vlaams Gewest","region_FR":"Région flamande","inhabitants":"33 439","zip":9500},{"NIS_code":41024,"municipality_NL":"Haaltert","municipality_FR":"Haaltert","arrondissement_NL":"Aalst","arrondissement_FR":"Alost","province_NL":"Oost-Vlaanderen","province_FR":"Flandre orientale","region_NL":"Vlaams Gewest","region_FR":"Région flamande","inhabitants":"18 633","zip":9450},{"NIS_code":41027,"municipality_NL":"Herzele","municipality_FR":"Herzele","arrondissement_NL":"Aalst","arrondissement_FR":"Alost","province_NL":"Oost-Vlaanderen","province_FR":"Flandre orientale","region_NL":"Vlaams Gewest","region_FR":"Région flamande","inhabitants":"18 027","zip":9552},{"NIS_code":41034,"municipality_NL":"Lede","municipality_FR":"Lede","arrondissement_NL":"Aalst","arrondissement_FR":"Alost","province_NL":"Oost-Vlaanderen","province_FR":"Flandre orientale","region_NL":"Vlaams Gewest","region_FR":"Région flamande","inhabitants":"18 701","zip":9340},{"NIS_code":41048,"municipality_NL":"Ninove","municipality_FR":"Ninove","arrondissement_NL":"Aalst","arrondissement_FR":"Alost","province_NL":"Oost-Vlaanderen","province_FR":"Flandre orientale","region_NL":"Vlaams Gewest","region_FR":"Région flamande","inhabitants":"38 911","zip":9400},{"NIS_code":41063,"municipality_NL":"Sint-Lievens-Houtem","municipality_FR":"Sint-Lievens-Houtem","arrondissement_NL":"Aalst","arrondissement_FR":"Alost","province_NL":"Oost-Vlaanderen","province_FR":"Flandre orientale","region_NL":"Vlaams Gewest","region_FR":"Région flamande","inhabitants":"10 342","zip":9520},{"NIS_code":41081,"municipality_NL":"Zottegem","municipality_FR":"Zottegem","arrondissement_NL":"Aalst","arrondissement_FR":"Alost","province_NL":"Oost-Vlaanderen","province_FR":"Flandre orientale","region_NL":"Vlaams Gewest","region_FR":"Région flamande","inhabitants":"26 582","zip":9620},{"NIS_code":41082,"municipality_NL":"Erpe-Mere","municipality_FR":"Erpe-Mere","arrondissement_NL":"Aalst","arrondissement_FR":"Alost","province_NL":"Oost-Vlaanderen","province_FR":"Flandre orientale","region_NL":"Vlaams Gewest","region_FR":"Région flamande","inhabitants":"19 811","zip":9420},{"NIS_code":42003,"municipality_NL":"Berlare","municipality_FR":"Berlare","arrondissement_NL":"Dendermonde","arrondissement_FR":"Termonde","province_NL":"Oost-Vlaanderen","province_FR":"Flandre orientale","region_NL":"Vlaams Gewest","region_FR":"Région flamande","inhabitants":"14 958","zip":9290},{"NIS_code":42004,"municipality_NL":"Buggenhout","municipality_FR":"Buggenhout","arrondissement_NL":"Dendermonde","arrondissement_FR":"Termonde","province_NL":"Oost-Vlaanderen","province_FR":"Flandre orientale","region_NL":"Vlaams Gewest","region_FR":"Région flamande","inhabitants":"14 517","zip":9255},{"NIS_code":42006,"municipality_NL":"Dendermonde","municipality_FR":"Termonde","arrondissement_NL":"Dendermonde","arrondissement_FR":"Termonde","province_NL":"Oost-Vlaanderen","province_FR":"Flandre orientale","region_NL":"Vlaams Gewest","region_FR":"Région flamande","inhabitants":"45 769","zip":9200},{"NIS_code":42008,"municipality_NL":"Hamme","municipality_FR":"Hamme","arrondissement_NL":"Dendermonde","arrondissement_FR":"Termonde","province_NL":"Oost-Vlaanderen","province_FR":"Flandre orientale","region_NL":"Vlaams Gewest","region_FR":"Région flamande","inhabitants":"24 865","zip":1785},{"NIS_code":42010,"municipality_NL":"Laarne","municipality_FR":"Laarne","arrondissement_NL":"Dendermonde","arrondissement_FR":"Termonde","province_NL":"Oost-Vlaanderen","province_FR":"Flandre orientale","region_NL":"Vlaams Gewest","region_FR":"Région flamande","inhabitants":"12 370","zip":9270},{"NIS_code":42011,"municipality_NL":"Lebbeke","municipality_FR":"Lebbeke","arrondissement_NL":"Dendermonde","arrondissement_FR":"Termonde","province_NL":"Oost-Vlaanderen","province_FR":"Flandre orientale","region_NL":"Vlaams Gewest","region_FR":"Région flamande","inhabitants":"19 321","zip":9280},{"NIS_code":42023,"municipality_NL":"Waasmunster","municipality_FR":"Waasmunster","arrondissement_NL":"Dendermonde","arrondissement_FR":"Termonde","province_NL":"Oost-Vlaanderen","province_FR":"Flandre orientale","region_NL":"Vlaams Gewest","region_FR":"Région flamande","inhabitants":"10 801","zip":9250},{"NIS_code":42025,"municipality_NL":"Wetteren","municipality_FR":"Wetteren","arrondissement_NL":"Dendermonde","arrondissement_FR":"Termonde","province_NL":"Oost-Vlaanderen","province_FR":"Flandre orientale","region_NL":"Vlaams Gewest","region_FR":"Région flamande","inhabitants":"25 815","zip":9230},{"NIS_code":42026,"municipality_NL":"Wichelen","municipality_FR":"Wichelen","arrondissement_NL":"Dendermonde","arrondissement_FR":"Termonde","province_NL":"Oost-Vlaanderen","province_FR":"Flandre orientale","region_NL":"Vlaams Gewest","region_FR":"Région flamande","inhabitants":"11 672","zip":9260},{"NIS_code":42028,"municipality_NL":"Zele","municipality_FR":"Zele","arrondissement_NL":"Dendermonde","arrondissement_FR":"Termonde","province_NL":"Oost-Vlaanderen","province_FR":"Flandre orientale","region_NL":"Vlaams Gewest","region_FR":"Région flamande","inhabitants":"21 125","zip":9240},{"NIS_code":43002,"municipality_NL":"Assenede","municipality_FR":"Assenede","arrondissement_NL":"Eeklo","arrondissement_FR":"Eeklo","province_NL":"Oost-Vlaanderen","province_FR":"Flandre orientale","region_NL":"Vlaams Gewest","region_FR":"Région flamande","inhabitants":"14 256","zip":9960},{"NIS_code":43005,"municipality_NL":"Eeklo","municipality_FR":"Eeklo","arrondissement_NL":"Eeklo","arrondissement_FR":"Eeklo","province_NL":"Oost-Vlaanderen","province_FR":"Flandre orientale","region_NL":"Vlaams Gewest","region_FR":"Région flamande","inhabitants":"21 134","zip":9900},{"NIS_code":43007,"municipality_NL":"Kaprijke","municipality_FR":"Kaprijke","arrondissement_NL":"Eeklo","arrondissement_FR":"Eeklo","province_NL":"Oost-Vlaanderen","province_FR":"Flandre orientale","region_NL":"Vlaams Gewest","region_FR":"Région flamande","inhabitants":"6 434","zip":9970},{"NIS_code":43010,"municipality_NL":"Maldegem","municipality_FR":"Maldegem","arrondissement_NL":"Eeklo","arrondissement_FR":"Eeklo","province_NL":"Oost-Vlaanderen","province_FR":"Flandre orientale","region_NL":"Vlaams Gewest","region_FR":"Région flamande","inhabitants":"23 774","zip":9991},{"NIS_code":43014,"municipality_NL":"Sint-Laureins","municipality_FR":"Sint-Laureins","arrondissement_NL":"Eeklo","arrondissement_FR":"Eeklo","province_NL":"Oost-Vlaanderen","province_FR":"Flandre orientale","region_NL":"Vlaams Gewest","region_FR":"Région flamande","inhabitants":"6 783","zip":9982},{"NIS_code":43018,"municipality_NL":"Zelzate","municipality_FR":"Zelzate","arrondissement_NL":"Eeklo","arrondissement_FR":"Eeklo","province_NL":"Oost-Vlaanderen","province_FR":"Flandre orientale","region_NL":"Vlaams Gewest","region_FR":"Région flamande","inhabitants":"12 854","zip":9060},{"NIS_code":44012,"municipality_NL":"De Pinte","municipality_FR":"De Pinte","arrondissement_NL":"Gent","arrondissement_FR":"Gand","province_NL":"Oost-Vlaanderen","province_FR":"Flandre orientale","region_NL":"Vlaams Gewest","region_FR":"Région flamande","inhabitants":"10 683","zip":9840},{"NIS_code":44013,"municipality_NL":"Destelbergen","municipality_FR":"Destelbergen","arrondissement_NL":"Gent","arrondissement_FR":"Gand","province_NL":"Oost-Vlaanderen","province_FR":"Flandre orientale","region_NL":"Vlaams Gewest","region_FR":"Région flamande","inhabitants":"18 271","zip":9070},{"NIS_code":44019,"municipality_NL":"Evergem","municipality_FR":"Evergem","arrondissement_NL":"Gent","arrondissement_FR":"Gand","province_NL":"Oost-Vlaanderen","province_FR":"Flandre orientale","region_NL":"Vlaams Gewest","region_FR":"Région flamande","inhabitants":"35 447","zip":9940},{"NIS_code":44020,"municipality_NL":"Gavere","municipality_FR":"Gavere","arrondissement_NL":"Gent","arrondissement_FR":"Gand","province_NL":"Oost-Vlaanderen","province_FR":"Flandre orientale","region_NL":"Vlaams Gewest","region_FR":"Région flamande","inhabitants":"12 805","zip":9890},{"NIS_code":44021,"municipality_NL":"Gent","municipality_FR":"Gand","arrondissement_NL":"Gent","arrondissement_FR":"Gand","province_NL":"Oost-Vlaanderen","province_FR":"Flandre orientale","region_NL":"Vlaams Gewest","region_FR":"Région flamande","inhabitants":"262 219","zip":9051},{"NIS_code":44034,"municipality_NL":"Lochristi","municipality_FR":"Lochristi","arrondissement_NL":"Gent","arrondissement_FR":"Gand","province_NL":"Oost-Vlaanderen","province_FR":"Flandre orientale","region_NL":"Vlaams Gewest","region_FR":"Région flamande","inhabitants":"22 489","zip":9080},{"NIS_code":44040,"municipality_NL":"Melle","municipality_FR":"Melle","arrondissement_NL":"Gent","arrondissement_FR":"Gand","province_NL":"Oost-Vlaanderen","province_FR":"Flandre orientale","region_NL":"Vlaams Gewest","region_FR":"Région flamande","inhabitants":"11 736","zip":9090},{"NIS_code":44043,"municipality_NL":"Merelbeke","municipality_FR":"Merelbeke","arrondissement_NL":"Gent","arrondissement_FR":"Gand","province_NL":"Oost-Vlaanderen","province_FR":"Flandre orientale","region_NL":"Vlaams Gewest","region_FR":"Région flamande","inhabitants":"24 660","zip":9820},{"NIS_code":44045,"municipality_NL":"Moerbeke","municipality_FR":"Moerbeke","arrondissement_NL":"Gent","arrondissement_FR":"Gand","province_NL":"Oost-Vlaanderen","province_FR":"Flandre orientale","region_NL":"Vlaams Gewest","region_FR":"Région flamande","inhabitants":"6 481","zip":9500},{"NIS_code":44048,"municipality_NL":"Nazareth","municipality_FR":"Nazareth","arrondissement_NL":"Gent","arrondissement_FR":"Gand","province_NL":"Oost-Vlaanderen","province_FR":"Flandre orientale","region_NL":"Vlaams Gewest","region_FR":"Région flamande","inhabitants":"11 619","zip":9810},{"NIS_code":44052,"municipality_NL":"Oosterzele","municipality_FR":"Oosterzele","arrondissement_NL":"Gent","arrondissement_FR":"Gand","province_NL":"Oost-Vlaanderen","province_FR":"Flandre orientale","region_NL":"Vlaams Gewest","region_FR":"Région flamande","inhabitants":"13 590","zip":9860},{"NIS_code":44064,"municipality_NL":"Sint-Martens-Latem","municipality_FR":"Sint-Martens-Latem","arrondissement_NL":"Gent","arrondissement_FR":"Gand","province_NL":"Oost-Vlaanderen","province_FR":"Flandre orientale","region_NL":"Vlaams Gewest","region_FR":"Région flamande","inhabitants":"8 392","zip":9831},{"NIS_code":44073,"municipality_NL":"Wachtebeke","municipality_FR":"Wachtebeke","arrondissement_NL":"Gent","arrondissement_FR":"Gand","province_NL":"Oost-Vlaanderen","province_FR":"Flandre orientale","region_NL":"Vlaams Gewest","region_FR":"Région flamande","inhabitants":"7 771","zip":9185},{"NIS_code":44081,"municipality_NL":"Zulte","municipality_FR":"Zulte","arrondissement_NL":"Gent","arrondissement_FR":"Gand","province_NL":"Oost-Vlaanderen","province_FR":"Flandre orientale","region_NL":"Vlaams Gewest","region_FR":"Région flamande","inhabitants":"15 720","zip":1830},{"NIS_code":"44083","municipality_NL":"Deinze","municipality_FR":"Deinze","arrondissement_NL":"Gent","arrondissement_FR":"Gand","province_NL":"Oost-Vlaanderen","province_FR":"Flandre orientale","region_NL":"Vlaams Gewest","region_FR":"Région flamande","inhabitants":"43 571","zip":9800},{"NIS_code":"44084","municipality_NL":"Aalter","municipality_FR":"Aalter","arrondissement_NL":"Gent","arrondissement_FR":"Gand","province_NL":"Oost-Vlaanderen","province_FR":"Flandre orientale","region_NL":"Vlaams Gewest","region_FR":"Région flamande","inhabitants":"28 906","zip":9880},{"NIS_code":"44085","municipality_NL":"Lievegem","municipality_FR":"Lievegem","arrondissement_NL":"Gent","arrondissement_FR":"Gand","province_NL":"Oost-Vlaanderen","province_FR":"Flandre orientale","region_NL":"Vlaams Gewest","region_FR":"Région flamande","inhabitants":"26 162","zip":9920},{"NIS_code":45035,"municipality_NL":"Oudenaarde","municipality_FR":"Audenarde","arrondissement_NL":"Oudenaarde","arrondissement_FR":"Audenarde","province_NL":"Oost-Vlaanderen","province_FR":"Flandre orientale","region_NL":"Vlaams Gewest","region_FR":"Région flamande","inhabitants":"31 393","zip":9700},{"NIS_code":45041,"municipality_NL":"Ronse","municipality_FR":"Renaix","arrondissement_NL":"Oudenaarde","arrondissement_FR":"Audenarde","province_NL":"Oost-Vlaanderen","province_FR":"Flandre orientale","region_NL":"Vlaams Gewest","region_FR":"Région flamande","inhabitants":"26 479","zip":9600},{"NIS_code":45059,"municipality_NL":"Brakel","municipality_FR":"Brakel","arrondissement_NL":"Oudenaarde","arrondissement_FR":"Audenarde","province_NL":"Oost-Vlaanderen","province_FR":"Flandre orientale","region_NL":"Vlaams Gewest","region_FR":"Région flamande","inhabitants":"14 801","zip":9660},{"NIS_code":45060,"municipality_NL":"Kluisbergen","municipality_FR":"Kluisbergen","arrondissement_NL":"Oudenaarde","arrondissement_FR":"Audenarde","province_NL":"Oost-Vlaanderen","province_FR":"Flandre orientale","region_NL":"Vlaams Gewest","region_FR":"Région flamande","inhabitants":"6 488","zip":9690},{"NIS_code":45061,"municipality_NL":"Wortegem-Petegem","municipality_FR":"Wortegem-Petegem","arrondissement_NL":"Oudenaarde","arrondissement_FR":"Audenarde","province_NL":"Oost-Vlaanderen","province_FR":"Flandre orientale","region_NL":"Vlaams Gewest","region_FR":"Région flamande","inhabitants":"6 397","zip":9790},{"NIS_code":45062,"municipality_NL":"Horebeke","municipality_FR":"Horebeke","arrondissement_NL":"Oudenaarde","arrondissement_FR":"Audenarde","province_NL":"Oost-Vlaanderen","province_FR":"Flandre orientale","region_NL":"Vlaams Gewest","region_FR":"Région flamande","inhabitants":"2 036","zip":9667},{"NIS_code":45063,"municipality_NL":"Lierde","municipality_FR":"Lierde","arrondissement_NL":"Oudenaarde","arrondissement_FR":"Audenarde","province_NL":"Oost-Vlaanderen","province_FR":"Flandre orientale","region_NL":"Vlaams Gewest","region_FR":"Région flamande","inhabitants":"6 616","zip":9570},{"NIS_code":45064,"municipality_NL":"Maarkedal","municipality_FR":"Maarkedal","arrondissement_NL":"Oudenaarde","arrondissement_FR":"Audenarde","province_NL":"Oost-Vlaanderen","province_FR":"Flandre orientale","region_NL":"Vlaams Gewest","region_FR":"Région flamande","inhabitants":"6 343","zip":9680},{"NIS_code":45065,"municipality_NL":"Zwalm","municipality_FR":"Zwalm","arrondissement_NL":"Oudenaarde","arrondissement_FR":"Audenarde","province_NL":"Oost-Vlaanderen","province_FR":"Flandre orientale","region_NL":"Vlaams Gewest","region_FR":"Région flamande","inhabitants":"8 148","zip":9630},{"NIS_code":"45068","municipality_NL":"Kruisem","municipality_FR":"Kruisem","arrondissement_NL":"Oudenaarde","arrondissement_FR":"Audenarde","province_NL":"Oost-Vlaanderen","province_FR":"Flandre orientale","region_NL":"Vlaams Gewest","region_FR":"Région flamande","inhabitants":"15 641","zip":9750},{"NIS_code":46003,"municipality_NL":"Beveren","municipality_FR":"Beveren","arrondissement_NL":"Sint-Niklaas","arrondissement_FR":"Saint-Nicolas","province_NL":"Oost-Vlaanderen","province_FR":"Flandre orientale","region_NL":"Vlaams Gewest","region_FR":"Région flamande","inhabitants":"48 668","zip":8791},{"NIS_code":46013,"municipality_NL":"Kruibeke","municipality_FR":"Kruibeke","arrondissement_NL":"Sint-Niklaas","arrondissement_FR":"Saint-Nicolas","province_NL":"Oost-Vlaanderen","province_FR":"Flandre orientale","region_NL":"Vlaams Gewest","region_FR":"Région flamande","inhabitants":"16 745","zip":9150},{"NIS_code":46014,"municipality_NL":"Lokeren","municipality_FR":"Lokeren","arrondissement_NL":"Sint-Niklaas","arrondissement_FR":"Saint-Nicolas","province_NL":"Oost-Vlaanderen","province_FR":"Flandre orientale","region_NL":"Vlaams Gewest","region_FR":"Région flamande","inhabitants":"41 690","zip":9160},{"NIS_code":46020,"municipality_NL":"Sint-Gillis-Waas","municipality_FR":"Sint-Gillis-Waas","arrondissement_NL":"Sint-Niklaas","arrondissement_FR":"Saint-Nicolas","province_NL":"Oost-Vlaanderen","province_FR":"Flandre orientale","region_NL":"Vlaams Gewest","region_FR":"Région flamande","inhabitants":"19 370","zip":9170},{"NIS_code":46021,"municipality_NL":"Sint-Niklaas","municipality_FR":"Saint-Nicolas","arrondissement_NL":"Sint-Niklaas","arrondissement_FR":"Saint-Nicolas","province_NL":"Oost-Vlaanderen","province_FR":"Flandre orientale","region_NL":"Vlaams Gewest","region_FR":"Région flamande","inhabitants":"77 679","zip":9111},{"NIS_code":46024,"municipality_NL":"Stekene","municipality_FR":"Stekene","arrondissement_NL":"Sint-Niklaas","arrondissement_FR":"Saint-Nicolas","province_NL":"Oost-Vlaanderen","province_FR":"Flandre orientale","region_NL":"Vlaams Gewest","region_FR":"Région flamande","inhabitants":"18 445","zip":9190},{"NIS_code":46025,"municipality_NL":"Temse","municipality_FR":"Tamise","arrondissement_NL":"Sint-Niklaas","arrondissement_FR":"Saint-Nicolas","province_NL":"Oost-Vlaanderen","province_FR":"Flandre orientale","region_NL":"Vlaams Gewest","region_FR":"Région flamande","inhabitants":"29 926","zip":9140},{"NIS_code":51004,"municipality_NL":"Aat","municipality_FR":"Ath","arrondissement_NL":"Aat","arrondissement_FR":"Ath","province_NL":"Henegouwen","province_FR":"Hainaut","region_NL":"Waals Gewest","region_FR":"Région wallonne","inhabitants":"29 311","zip":7800},{"NIS_code":51008,"municipality_NL":"Beloeil","municipality_FR":"Beloeil","arrondissement_NL":"Aat","arrondissement_FR":"Ath","province_NL":"Henegouwen","province_FR":"Hainaut","region_NL":"Waals Gewest","region_FR":"Région wallonne","inhabitants":"14 068","zip":7972},{"NIS_code":51009,"municipality_NL":"Bernissart","municipality_FR":"Bernissart","arrondissement_NL":"Aat","arrondissement_FR":"Ath","province_NL":"Henegouwen","province_FR":"Hainaut","region_NL":"Waals Gewest","region_FR":"Région wallonne","inhabitants":"11 859","zip":7320},{"NIS_code":51012,"municipality_NL":"Brugelette","municipality_FR":"Brugelette","arrondissement_NL":"Aat","arrondissement_FR":"Ath","province_NL":"Henegouwen","province_FR":"Hainaut","region_NL":"Waals Gewest","region_FR":"Région wallonne","inhabitants":"3 728","zip":7941},{"NIS_code":51014,"municipality_NL":"Chièvres","municipality_FR":"Chièvres","arrondissement_NL":"Aat","arrondissement_FR":"Ath","province_NL":"Henegouwen","province_FR":"Hainaut","region_NL":"Waals Gewest","region_FR":"Région wallonne","inhabitants":"6 916","zip":7950},{"NIS_code":51017,"municipality_NL":"Elzele","municipality_FR":"Ellezelles","arrondissement_NL":"Aat","arrondissement_FR":"Ath","province_NL":"Henegouwen","province_FR":"Hainaut","region_NL":"Waals Gewest","region_FR":"Région wallonne","inhabitants":"5 975","zip":7890},{"NIS_code":51019,"municipality_NL":"Vloesberg","municipality_FR":"Flobecq","arrondissement_NL":"Aat","arrondissement_FR":"Ath","province_NL":"Henegouwen","province_FR":"Hainaut","region_NL":"Waals Gewest","region_FR":"Région wallonne","inhabitants":"3 447","zip":7880},{"NIS_code":51065,"municipality_NL":"Frasnes-lez-Anvaing","municipality_FR":"Frasnes-lez-Anvaing","arrondissement_NL":"Aat","arrondissement_FR":"Ath","province_NL":"Henegouwen","province_FR":"Hainaut","region_NL":"Waals Gewest","region_FR":"Région wallonne","inhabitants":"11 814","zip":7910},{"NIS_code":"51067","municipality_NL":"Edingen","municipality_FR":"Enghien","arrondissement_NL":"Aat","arrondissement_FR":"Ath","province_NL":"Henegouwen","province_FR":"Hainaut","region_NL":"Région wallonne","region_FR":"Région wallonne","inhabitants":"13 817","zip":7850},{"NIS_code":"51068","municipality_NL":"Opzullik","municipality_FR":"Silly","arrondissement_NL":"Aat","arrondissement_FR":"Ath","province_NL":"Henegouwen","province_FR":"Hainaut","region_NL":"Waals Gewest","region_FR":"Région wallonne","inhabitants":"8 324","zip":7830},{"NIS_code":"51069","municipality_NL":"Lessen","municipality_FR":"Lessines","arrondissement_NL":"Aat","arrondissement_FR":"Ath","province_NL":"Henegouwen","province_FR":"Hainaut","region_NL":"Henegouwen","region_FR":"Région wallonne","inhabitants":"18 656","zip":7860},{"NIS_code":52010,"municipality_NL":"Chapelle-lez-Herlaimont","municipality_FR":"Chapelle-lez-Herlaimont","arrondissement_NL":"Charleroi","arrondissement_FR":"Charleroi","province_NL":"Henegouwen","province_FR":"Hainaut","region_NL":"Waals Gewest","region_FR":"Région wallonne","inhabitants":"14 737","zip":7160},{"NIS_code":52011,"municipality_NL":"Charleroi","municipality_FR":"Charleroi","arrondissement_NL":"Charleroi","arrondissement_FR":"Charleroi","province_NL":"Henegouwen","province_FR":"Hainaut","region_NL":"Waals Gewest","region_FR":"Région wallonne","inhabitants":"202 267","zip":6000},{"NIS_code":52012,"municipality_NL":"Châtelet","municipality_FR":"Châtelet","arrondissement_NL":"Charleroi","arrondissement_FR":"Charleroi","province_NL":"Henegouwen","province_FR":"Hainaut","region_NL":"Waals Gewest","region_FR":"Région wallonne","inhabitants":"35 903","zip":6200},{"NIS_code":52015,"municipality_NL":"Courcelles","municipality_FR":"Courcelles","arrondissement_NL":"Charleroi","arrondissement_FR":"Charleroi","province_NL":"Henegouwen","province_FR":"Hainaut","region_NL":"Waals Gewest","region_FR":"Région wallonne","inhabitants":"31 299","zip":6180},{"NIS_code":52018,"municipality_NL":"Farciennes","municipality_FR":"Farciennes","arrondissement_NL":"Charleroi","arrondissement_FR":"Charleroi","province_NL":"Henegouwen","province_FR":"Hainaut","region_NL":"Waals Gewest","region_FR":"Région wallonne","inhabitants":"11 316","zip":6240},{"NIS_code":52021,"municipality_NL":"Fleurus","municipality_FR":"Fleurus","arrondissement_NL":"Charleroi","arrondissement_FR":"Charleroi","province_NL":"Henegouwen","province_FR":"Hainaut","region_NL":"Waals Gewest","region_FR":"Région wallonne","inhabitants":"22 918","zip":6222},{"NIS_code":52022,"municipality_NL":"Fontaine-l’Evêque","municipality_FR":"Fontaine-l’Evêque","arrondissement_NL":"Charleroi","arrondissement_FR":"Charleroi","province_NL":"Henegouwen","province_FR":"Hainaut","region_NL":"Waals Gewest","region_FR":"Région wallonne","inhabitants":"17 806","zip":6140},{"NIS_code":52025,"municipality_NL":"Gerpinnes","municipality_FR":"Gerpinnes","arrondissement_NL":"Charleroi","arrondissement_FR":"Charleroi","province_NL":"Henegouwen","province_FR":"Hainaut","region_NL":"Waals Gewest","region_FR":"Région wallonne","inhabitants":"12 716","zip":6280},{"NIS_code":52048,"municipality_NL":"Montigny-le-Tilleul","municipality_FR":"Montigny-le-Tilleul","arrondissement_NL":"Charleroi","arrondissement_FR":"Charleroi","province_NL":"Henegouwen","province_FR":"Hainaut","region_NL":"Waals Gewest","region_FR":"Région wallonne","inhabitants":"10 112","zip":6111},{"NIS_code":52055,"municipality_NL":"Pont-à-Celles","municipality_FR":"Pont-à-Celles","arrondissement_NL":"Charleroi","arrondissement_FR":"Charleroi","province_NL":"Henegouwen","province_FR":"Hainaut","region_NL":"Waals Gewest","region_FR":"Région wallonne","inhabitants":"17 371","zip":6230},{"NIS_code":52074,"municipality_NL":"Aiseau-Presles","municipality_FR":"Aiseau-Presles","arrondissement_NL":"Charleroi","arrondissement_FR":"Charleroi","province_NL":"Henegouwen","province_FR":"Hainaut","region_NL":"Waals Gewest","region_FR":"Région wallonne","inhabitants":"10 743","zip":6250},{"NIS_code":52075,"municipality_NL":"Les Bons Villers","municipality_FR":"Les Bons Villers","arrondissement_NL":"Charleroi","arrondissement_FR":"Charleroi","province_NL":"Henegouwen","province_FR":"Hainaut","region_NL":"Waals Gewest","region_FR":"Région wallonne","inhabitants":"9 451","zip":6210},{"NIS_code":53014,"municipality_NL":"Boussu","municipality_FR":"Boussu","arrondissement_NL":"Bergen","arrondissement_FR":"Mons","province_NL":"Henegouwen","province_FR":"Hainaut","region_NL":"Waals Gewest","region_FR":"Région wallonne","inhabitants":"19 824","zip":7300},{"NIS_code":53020,"municipality_NL":"Dour","municipality_FR":"Dour","arrondissement_NL":"Bergen","arrondissement_FR":"Mons","province_NL":"Henegouwen","province_FR":"Hainaut","region_NL":"Waals Gewest","region_FR":"Région wallonne","inhabitants":"16 644","zip":7370},{"NIS_code":53028,"municipality_NL":"Frameries","municipality_FR":"Frameries","arrondissement_NL":"Bergen","arrondissement_FR":"Mons","province_NL":"Henegouwen","province_FR":"Hainaut","region_NL":"Waals Gewest","region_FR":"Région wallonne","inhabitants":"21 934","zip":7080},{"NIS_code":53039,"municipality_NL":"Hensies","municipality_FR":"Hensies","arrondissement_NL":"Bergen","arrondissement_FR":"Mons","province_NL":"Henegouwen","province_FR":"Hainaut","region_NL":"Waals Gewest","region_FR":"Région wallonne","inhabitants":"6 828","zip":7350},{"NIS_code":53044,"municipality_NL":"Jurbeke","municipality_FR":"Jurbise","arrondissement_NL":"Bergen","arrondissement_FR":"Mons","province_NL":"Henegouwen","province_FR":"Hainaut","region_NL":"Waals Gewest","region_FR":"Région wallonne","inhabitants":"10 383","zip":7050},{"NIS_code":53046,"municipality_NL":"Lens","municipality_FR":"Lens","arrondissement_NL":"Bergen","arrondissement_FR":"Mons","province_NL":"Henegouwen","province_FR":"Hainaut","region_NL":"Waals Gewest","region_FR":"Région wallonne","inhabitants":"4 525","zip":7870},{"NIS_code":53053,"municipality_NL":"Bergen","municipality_FR":"Mons","arrondissement_NL":"Bergen","arrondissement_FR":"Mons","province_NL":"Henegouwen","province_FR":"Hainaut","region_NL":"Waals Gewest","region_FR":"Région wallonne","inhabitants":"95 613","zip":7024},{"NIS_code":53065,"municipality_NL":"Quaregnon","municipality_FR":"Quaregnon","arrondissement_NL":"Bergen","arrondissement_FR":"Mons","province_NL":"Henegouwen","province_FR":"Hainaut","region_NL":"Waals Gewest","region_FR":"Région wallonne","inhabitants":"19 007","zip":7390},{"NIS_code":53068,"municipality_NL":"Quiévrain","municipality_FR":"Quiévrain","arrondissement_NL":"Bergen","arrondissement_FR":"Mons","province_NL":"Henegouwen","province_FR":"Hainaut","region_NL":"Waals Gewest","region_FR":"Région wallonne","inhabitants":"6 822","zip":7382},{"NIS_code":53070,"municipality_NL":"Saint-Ghislain","municipality_FR":"Saint-Ghislain","arrondissement_NL":"Bergen","arrondissement_FR":"Mons","province_NL":"Henegouwen","province_FR":"Hainaut","region_NL":"Waals Gewest","region_FR":"Région wallonne","inhabitants":"23 311","zip":7331},{"NIS_code":53082,"municipality_NL":"Colfontaine","municipality_FR":"Colfontaine","arrondissement_NL":"Bergen","arrondissement_FR":"Mons","province_NL":"Henegouwen","province_FR":"Hainaut","region_NL":"Waals Gewest","region_FR":"Région wallonne","inhabitants":"20 811","zip":7340},{"NIS_code":53083,"municipality_NL":"Honnelles","municipality_FR":"Honnelles","arrondissement_NL":"Bergen","arrondissement_FR":"Mons","province_NL":"Henegouwen","province_FR":"Hainaut","region_NL":"Waals Gewest","region_FR":"Région wallonne","inhabitants":"5 159","zip":7387},{"NIS_code":53084,"municipality_NL":"Quévy","municipality_FR":"Quévy","arrondissement_NL":"Bergen","arrondissement_FR":"Mons","province_NL":"Henegouwen","province_FR":"Hainaut","region_NL":"Waals Gewest","region_FR":"Région wallonne","inhabitants":"8 138","zip":7040},{"NIS_code":55004,"municipality_NL":"’s Gravenbrakel","municipality_FR":"Braine-le-Comte","arrondissement_NL":"Zinnik","arrondissement_FR":"Soignies","province_NL":"Henegouwen","province_FR":"Hainaut","region_NL":"Waals Gewest","region_FR":"Région wallonne","inhabitants":"21 901","zip":7090},{"NIS_code":55035,"municipality_NL":"Le Roeulx","municipality_FR":"Le Roeulx","arrondissement_NL":"Zinnik","arrondissement_FR":"Soignies","province_NL":"Henegouwen","province_FR":"Hainaut","region_NL":"Waals Gewest","region_FR":"Région wallonne","inhabitants":"8 716","zip":7070},{"NIS_code":55040,"municipality_NL":"Zinnik","municipality_FR":"Soignies","arrondissement_NL":"Zinnik","arrondissement_FR":"Soignies","province_NL":"Henegouwen","province_FR":"Hainaut","region_NL":"Waals Gewest","region_FR":"Région wallonne","inhabitants":"28 016","zip":7061},{"NIS_code":55050,"municipality_NL":"Ecaussinnes","municipality_FR":"Ecaussinnes","arrondissement_NL":"Zinnik","arrondissement_FR":"Soignies","province_NL":"Henegouwen","province_FR":"Hainaut","region_NL":"Waals Gewest","region_FR":"Région wallonne","inhabitants":"11 159","zip":7190},{"NIS_code":"55085","municipality_NL":"Seneffe","municipality_FR":"Seneffe","arrondissement_NL":"Zinnik","arrondissement_FR":"Soignies","province_NL":"Henegouwen","province_FR":"Hainaut","region_NL":"Waals Gewest","region_FR":"Région wallonne","inhabitants":"11 433","zip":7180},{"NIS_code":"55086","municipality_NL":"Manage","municipality_FR":"Manage","arrondissement_NL":"Zinnik","arrondissement_FR":"Soignies","province_NL":"Henegouwen","province_FR":"Hainaut","region_NL":"Waals Gewest","region_FR":"Région wallonne","inhabitants":"23 308","zip":7170},{"NIS_code":56001,"municipality_NL":"Anderlues","municipality_FR":"Anderlues","arrondissement_NL":"Thuin","arrondissement_FR":"Thuin","province_NL":"Henegouwen","province_FR":"Hainaut","region_NL":"Waals Gewest","region_FR":"Région wallonne","inhabitants":"12 261","zip":6150},{"NIS_code":56005,"municipality_NL":"Beaumont","municipality_FR":"Beaumont","arrondissement_NL":"Thuin","arrondissement_FR":"Thuin","province_NL":"Henegouwen","province_FR":"Hainaut","region_NL":"Waals Gewest","region_FR":"Région wallonne","inhabitants":"7 124","zip":6500},{"NIS_code":56016,"municipality_NL":"Chimay","municipality_FR":"Chimay","arrondissement_NL":"Thuin","arrondissement_FR":"Thuin","province_NL":"Henegouwen","province_FR":"Hainaut","region_NL":"Waals Gewest","region_FR":"Région wallonne","inhabitants":"9 805","zip":6464},{"NIS_code":56022,"municipality_NL":"Erquelinnes","municipality_FR":"Erquelinnes","arrondissement_NL":"Thuin","arrondissement_FR":"Thuin","province_NL":"Henegouwen","province_FR":"Hainaut","region_NL":"Waals Gewest","region_FR":"Région wallonne","inhabitants":"10 003","zip":6560},{"NIS_code":56029,"municipality_NL":"Froidchapelle","municipality_FR":"Froidchapelle","arrondissement_NL":"Thuin","arrondissement_FR":"Thuin","province_NL":"Henegouwen","province_FR":"Hainaut","region_NL":"Waals Gewest","region_FR":"Région wallonne","inhabitants":"3 959","zip":6440},{"NIS_code":56044,"municipality_NL":"Lobbes","municipality_FR":"Lobbes","arrondissement_NL":"Thuin","arrondissement_FR":"Thuin","province_NL":"Henegouwen","province_FR":"Hainaut","region_NL":"Waals Gewest","region_FR":"Région wallonne","inhabitants":"5 832","zip":6543},{"NIS_code":56049,"municipality_NL":"Merbes-le-Château","municipality_FR":"Merbes-le-Château","arrondissement_NL":"Thuin","arrondissement_FR":"Thuin","province_NL":"Henegouwen","province_FR":"Hainaut","region_NL":"Waals Gewest","region_FR":"Région wallonne","inhabitants":"4 266","zip":6567},{"NIS_code":56051,"municipality_NL":"Momignies","municipality_FR":"Momignies","arrondissement_NL":"Thuin","arrondissement_FR":"Thuin","province_NL":"Henegouwen","province_FR":"Hainaut","region_NL":"Waals Gewest","region_FR":"Région wallonne","inhabitants":"5 305","zip":6594},{"NIS_code":56078,"municipality_NL":"Thuin","municipality_FR":"Thuin","arrondissement_NL":"Thuin","arrondissement_FR":"Thuin","province_NL":"Henegouwen","province_FR":"Hainaut","region_NL":"Waals Gewest","region_FR":"Région wallonne","inhabitants":"14 702","zip":6533},{"NIS_code":56086,"municipality_NL":"Ham-sur-Heure-Nalinnes","municipality_FR":"Ham-sur-Heure-Nalinnes","arrondissement_NL":"Thuin","arrondissement_FR":"Thuin","province_NL":"Henegouwen","province_FR":"Hainaut","region_NL":"Waals Gewest","region_FR":"Région wallonne","inhabitants":"13 623","zip":6120},{"NIS_code":56088,"municipality_NL":"Sivry-Rance","municipality_FR":"Sivry-Rance","arrondissement_NL":"Thuin","arrondissement_FR":"Thuin","province_NL":"Henegouwen","province_FR":"Hainaut","region_NL":"Waals Gewest","region_FR":"Région wallonne","inhabitants":"4 798","zip":6470},{"NIS_code":57003,"municipality_NL":"Antoing","municipality_FR":"Antoing","arrondissement_NL":"Doornik-Moeskroen","arrondissement_FR":"Tournai-Mouscron","province_NL":"Henegouwen","province_FR":"Hainaut","region_NL":"Waals Gewest","region_FR":"Région wallonne","inhabitants":"7 687","zip":7640},{"NIS_code":57018,"municipality_NL":"Celles","municipality_FR":"Celles","arrondissement_NL":"Doornik-Moeskroen","arrondissement_FR":"Tournai-Mouscron","province_NL":"Henegouwen","province_FR":"Hainaut","region_NL":"Waals Gewest","region_FR":"Région wallonne","inhabitants":"5 666","zip":7760},{"NIS_code":57027,"municipality_NL":"Estaimpuis","municipality_FR":"Estaimpuis","arrondissement_NL":"Doornik-Moeskroen","arrondissement_FR":"Tournai-Mouscron","province_NL":"Henegouwen","province_FR":"Hainaut","region_NL":"Waals Gewest","region_FR":"Région wallonne","inhabitants":"10 478","zip":7730},{"NIS_code":57062,"municipality_NL":"Pecq","municipality_FR":"Pecq","arrondissement_NL":"Doornik-Moeskroen","arrondissement_FR":"Tournai-Mouscron","province_NL":"Henegouwen","province_FR":"Hainaut","region_NL":"Waals Gewest","region_FR":"Région wallonne","inhabitants":"5 698","zip":7743},{"NIS_code":57064,"municipality_NL":"Péruwelz","municipality_FR":"Péruwelz","arrondissement_NL":"Doornik-Moeskroen","arrondissement_FR":"Tournai-Mouscron","province_NL":"Henegouwen","province_FR":"Hainaut","region_NL":"Waals Gewest","region_FR":"Région wallonne","inhabitants":"17 159","zip":7604},{"NIS_code":57072,"municipality_NL":"Rumes","municipality_FR":"Rumes","arrondissement_NL":"Doornik-Moeskroen","arrondissement_FR":"Tournai-Mouscron","province_NL":"Henegouwen","province_FR":"Hainaut","region_NL":"Waals Gewest","region_FR":"Région wallonne","inhabitants":"5 167","zip":7611},{"NIS_code":57081,"municipality_NL":"Doornik","municipality_FR":"Tournai","arrondissement_NL":"Doornik-Moeskroen","arrondissement_FR":"Tournai-Mouscron","province_NL":"Henegouwen","province_FR":"Hainaut","region_NL":"Waals Gewest","region_FR":"Région wallonne","inhabitants":"69 370","zip":7534},{"NIS_code":57093,"municipality_NL":"Brunehaut","municipality_FR":"Brunehaut","arrondissement_NL":"Doornik-Moeskroen","arrondissement_FR":"Tournai-Mouscron","province_NL":"Henegouwen","province_FR":"Hainaut","region_NL":"Waals Gewest","region_FR":"Région wallonne","inhabitants":"8 080","zip":7620},{"NIS_code":57094,"municipality_NL":"Leuze-en-Hainaut","municipality_FR":"Leuze-en-Hainaut","arrondissement_NL":"Doornik-Moeskroen","arrondissement_FR":"Tournai-Mouscron","province_NL":"Henegouwen","province_FR":"Hainaut","region_NL":"Waals Gewest","region_FR":"Région wallonne","inhabitants":"13 850","zip":7903},{"NIS_code":57095,"municipality_NL":"Mont-de-l’Enclus","municipality_FR":"Mont-de-l’Enclus","arrondissement_NL":"Doornik-Moeskroen","arrondissement_FR":"Tournai","province_NL":"Henegouwen","province_FR":"Hainaut","region_NL":"Waals Gewest","region_FR":"Région wallonne","inhabitants":"3 764","zip":7750},{"NIS_code":"57096","municipality_NL":"Moeskroen","municipality_FR":"Mouscron","arrondissement_NL":"Doornik-Moeskroen","arrondissement_FR":"Tournai-Mouscron","province_NL":"Henegouwen","province_FR":"Hainaut","region_NL":"Waals Gewest","region_FR":"Région wallonne","inhabitants":"58 474","zip":7711},{"NIS_code":"57097","municipality_NL":"Komen-Waasten","municipality_FR":"Comines-Warneton","arrondissement_NL":"Doornik-Moeskroen","arrondissement_FR":"Tournai-Mouscron","province_NL":"Henegouwen","province_FR":"Hainaut","region_NL":"Waals Gewest","region_FR":"Région wallonne","inhabitants":"18 024","zip":7783},{"NIS_code":"58001","municipality_NL":"La Louvière","municipality_FR":"La Louvière","arrondissement_NL":"Zinnik","arrondissement_FR":"Soignies","province_NL":"Henegouwen","province_FR":"Hainaut","region_NL":"Waals Gewest","region_FR":"Région wallonne","inhabitants":"80 757","zip":7866},{"NIS_code":"58002","municipality_NL":"Binche","municipality_FR":"Binche","arrondissement_NL":"Thuin","arrondissement_FR":"Thuin","province_NL":"Henegouwen","province_FR":"Hainaut","region_NL":"Waals Gewest","region_FR":"Région wallonne","inhabitants":"33 473","zip":7130},{"NIS_code":"58003","municipality_NL":"Estinnes","municipality_FR":"Estinnes","arrondissement_NL":"Thuin","arrondissement_FR":"Thuin","province_NL":"Henegouwen","province_FR":"Hainaut","region_NL":"Waals Gewest","region_FR":"Région wallonne","inhabitants":"7 765","zip":7120},{"NIS_code":"58004","municipality_NL":"Morlanwelz","municipality_FR":"Morlanwelz","arrondissement_NL":"Thuin","arrondissement_FR":"Thuin","province_NL":"Henegouwen","province_FR":"Hainaut","region_NL":"Waals Gewest","region_FR":"Région wallonne","inhabitants":"19 065","zip":7140},{"NIS_code":61003,"municipality_NL":"Amay","municipality_FR":"Amay","arrondissement_NL":"Hoei","arrondissement_FR":"Huy","province_NL":"Luik","province_FR":"Liège","region_NL":"Waals Gewest","region_FR":"Région wallonne","inhabitants":"14 412","zip":4540},{"NIS_code":61010,"municipality_NL":"Burdinne","municipality_FR":"Burdinne","arrondissement_NL":"Hoei","arrondissement_FR":"Huy","province_NL":"Luik","province_FR":"Liège","region_NL":"Waals Gewest","region_FR":"Région wallonne","inhabitants":"3 238","zip":4210},{"NIS_code":61012,"municipality_NL":"Clavier","municipality_FR":"Clavier","arrondissement_NL":"Hoei","arrondissement_FR":"Huy","province_NL":"Luik","province_FR":"Liège","region_NL":"Waals Gewest","region_FR":"Région wallonne","inhabitants":"4 637","zip":4560},{"NIS_code":61019,"municipality_NL":"Ferrières","municipality_FR":"Ferrières","arrondissement_NL":"Hoei","arrondissement_FR":"Huy","province_NL":"Luik","province_FR":"Liège","region_NL":"Waals Gewest","region_FR":"Région wallonne","inhabitants":"4 935","zip":4190},{"NIS_code":61024,"municipality_NL":"Hamoir","municipality_FR":"Hamoir","arrondissement_NL":"Hoei","arrondissement_FR":"Huy","province_NL":"Luik","province_FR":"Liège","region_NL":"Waals Gewest","region_FR":"Région wallonne","inhabitants":"3 880","zip":4180},{"NIS_code":61028,"municipality_NL":"Héron","municipality_FR":"Héron","arrondissement_NL":"Hoei","arrondissement_FR":"Huy","province_NL":"Luik","province_FR":"Liège","region_NL":"Waals Gewest","region_FR":"Région wallonne","inhabitants":"5 375","zip":4218},{"NIS_code":61031,"municipality_NL":"Hoei","municipality_FR":"Huy","arrondissement_NL":"Hoei","arrondissement_FR":"Huy","province_NL":"Luik","province_FR":"Liège","region_NL":"Waals Gewest","region_FR":"Région wallonne","inhabitants":"21 227","zip":4500},{"NIS_code":61039,"municipality_NL":"Marchin","municipality_FR":"Marchin","arrondissement_NL":"Hoei","arrondissement_FR":"Huy","province_NL":"Luik","province_FR":"Liège","region_NL":"Waals Gewest","region_FR":"Région wallonne","inhabitants":"5 469","zip":4570},{"NIS_code":61041,"municipality_NL":"Modave","municipality_FR":"Modave","arrondissement_NL":"Hoei","arrondissement_FR":"Huy","province_NL":"Luik","province_FR":"Liège","region_NL":"Waals Gewest","region_FR":"Région wallonne","inhabitants":"4 212","zip":4577},{"NIS_code":61043,"municipality_NL":"Nandrin","municipality_FR":"Nandrin","arrondissement_NL":"Hoei","arrondissement_FR":"Huy","province_NL":"Luik","province_FR":"Liège","region_NL":"Waals Gewest","region_FR":"Région wallonne","inhabitants":"5 753","zip":4550},{"NIS_code":61048,"municipality_NL":"Ouffet","municipality_FR":"Ouffet","arrondissement_NL":"Hoei","arrondissement_FR":"Huy","province_NL":"Luik","province_FR":"Liège","region_NL":"Waals Gewest","region_FR":"Région wallonne","inhabitants":"2 776","zip":4590},{"NIS_code":61063,"municipality_NL":"Verlaine","municipality_FR":"Verlaine","arrondissement_NL":"Hoei","arrondissement_FR":"Huy","province_NL":"Luik","province_FR":"Liège","region_NL":"Waals Gewest","region_FR":"Région wallonne","inhabitants":"4 228","zip":4537},{"NIS_code":61068,"municipality_NL":"Villers-Le-Bouillet","municipality_FR":"Villers-Le-Bouillet","arrondissement_NL":"Hoei","arrondissement_FR":"Huy","province_NL":"Luik","province_FR":"Liège","region_NL":"Waals Gewest","region_FR":"Région wallonne","inhabitants":"6 496","zip":4530},{"NIS_code":61072,"municipality_NL":"Wanze","municipality_FR":"Wanze","arrondissement_NL":"Hoei","arrondissement_FR":"Huy","province_NL":"Luik","province_FR":"Liège","region_NL":"Waals Gewest","region_FR":"Région wallonne","inhabitants":"13 738","zip":4520},{"NIS_code":61079,"municipality_NL":"Anthisnes","municipality_FR":"Anthisnes","arrondissement_NL":"Hoei","arrondissement_FR":"Huy","province_NL":"Luik","province_FR":"Liège","region_NL":"Waals Gewest","region_FR":"Région wallonne","inhabitants":"4 189","zip":4160},{"NIS_code":61080,"municipality_NL":"Engis","municipality_FR":"Engis","arrondissement_NL":"Hoei","arrondissement_FR":"Huy","province_NL":"Luik","province_FR":"Liège","region_NL":"Waals Gewest","region_FR":"Région wallonne","inhabitants":"6 138","zip":4480},{"NIS_code":61081,"municipality_NL":"Tinlot","municipality_FR":"Tinlot","arrondissement_NL":"Hoei","arrondissement_FR":"Huy","province_NL":"Luik","province_FR":"Liège","region_NL":"Waals Gewest","region_FR":"Région wallonne","inhabitants":"2 706","zip":4557},{"NIS_code":62003,"municipality_NL":"Ans","municipality_FR":"Ans","arrondissement_NL":"Luik","arrondissement_FR":"Liège","province_NL":"Luik","province_FR":"Liège","region_NL":"Waals Gewest","region_FR":"Région wallonne","inhabitants":"28 373","zip":4432},{"NIS_code":62006,"municipality_NL":"Awans","municipality_FR":"Awans","arrondissement_NL":"Luik","arrondissement_FR":"Liège","province_NL":"Luik","province_FR":"Liège","region_NL":"Waals Gewest","region_FR":"Région wallonne","inhabitants":"9 318","zip":4340},{"NIS_code":62009,"municipality_NL":"Aywaille","municipality_FR":"Aywaille","arrondissement_NL":"Luik","arrondissement_FR":"Liège","province_NL":"Luik","province_FR":"Liège","region_NL":"Waals Gewest","region_FR":"Région wallonne","inhabitants":"12 436","zip":4920},{"NIS_code":62011,"municipality_NL":"Bitsingen","municipality_FR":"Bassenge","arrondissement_NL":"Luik","arrondissement_FR":"Liège","province_NL":"Luik","province_FR":"Liège","region_NL":"Waals Gewest","region_FR":"Région wallonne","inhabitants":"8 905","zip":4690},{"NIS_code":62015,"municipality_NL":"Beyne-Heusay","municipality_FR":"Beyne-Heusay","arrondissement_NL":"Luik","arrondissement_FR":"Liège","province_NL":"Luik","province_FR":"Liège","region_NL":"Waals Gewest","region_FR":"Région wallonne","inhabitants":"11 929","zip":4610},{"NIS_code":62022,"municipality_NL":"Chaudfontaine","municipality_FR":"Chaudfontaine","arrondissement_NL":"Luik","arrondissement_FR":"Liège","province_NL":"Luik","province_FR":"Liège","region_NL":"Waals Gewest","region_FR":"Région wallonne","inhabitants":"20 800","zip":4052},{"NIS_code":62026,"municipality_NL":"Comblain-au-Pont","municipality_FR":"Comblain-au-Pont","arrondissement_NL":"Luik","arrondissement_FR":"Liège","province_NL":"Luik","province_FR":"Liège","region_NL":"Waals Gewest","region_FR":"Région wallonne","inhabitants":"5 404","zip":4170},{"NIS_code":62027,"municipality_NL":"Dalhem","municipality_FR":"Dalhem","arrondissement_NL":"Luik","arrondissement_FR":"Liège","province_NL":"Luik","province_FR":"Liège","region_NL":"Waals Gewest","region_FR":"Région wallonne","inhabitants":"7 408","zip":4607},{"NIS_code":62032,"municipality_NL":"Esneux","municipality_FR":"Esneux","arrondissement_NL":"Luik","arrondissement_FR":"Liège","province_NL":"Luik","province_FR":"Liège","region_NL":"Waals Gewest","region_FR":"Région wallonne","inhabitants":"12 917","zip":4130},{"NIS_code":62038,"municipality_NL":"Fléron","municipality_FR":"Fléron","arrondissement_NL":"Luik","arrondissement_FR":"Liège","province_NL":"Luik","province_FR":"Liège","region_NL":"Waals Gewest","region_FR":"Région wallonne","inhabitants":"16 526","zip":4620},{"NIS_code":62051,"municipality_NL":"Herstal","municipality_FR":"Herstal","arrondissement_NL":"Luik","arrondissement_FR":"Liège","province_NL":"Luik","province_FR":"Liège","region_NL":"Waals Gewest","region_FR":"Région wallonne","inhabitants":"39 989","zip":4040},{"NIS_code":62060,"municipality_NL":"Juprelle","municipality_FR":"Juprelle","arrondissement_NL":"Luik","arrondissement_FR":"Liège","province_NL":"Luik","province_FR":"Liège","region_NL":"Waals Gewest","region_FR":"Région wallonne","inhabitants":"9 295","zip":4458},{"NIS_code":62063,"municipality_NL":"Luik","municipality_FR":"Liège","arrondissement_NL":"Luik","arrondissement_FR":"Liège","province_NL":"Luik","province_FR":"Liège","region_NL":"Waals Gewest","region_FR":"Région wallonne","inhabitants":"197 327","zip":4031},{"NIS_code":62079,"municipality_NL":"Oupeye","municipality_FR":"Oupeye","arrondissement_NL":"Luik","arrondissement_FR":"Liège","province_NL":"Luik","province_FR":"Liège","region_NL":"Waals Gewest","region_FR":"Région wallonne","inhabitants":"25 446","zip":4684},{"NIS_code":62093,"municipality_NL":"Saint-Nicolas","municipality_FR":"Saint-Nicolas","arrondissement_NL":"Luik","arrondissement_FR":"Liège","province_NL":"Luik","province_FR":"Liège","region_NL":"Waals Gewest","region_FR":"Région wallonne","inhabitants":"24 263","zip":4420},{"NIS_code":62096,"municipality_NL":"Seraing","municipality_FR":"Seraing","arrondissement_NL":"Luik","arrondissement_FR":"Liège","province_NL":"Luik","province_FR":"Liège","region_NL":"Waals Gewest","region_FR":"Région wallonne","inhabitants":"64 259","zip":4100},{"NIS_code":62099,"municipality_NL":"Soumagne","municipality_FR":"Soumagne","arrondissement_NL":"Luik","arrondissement_FR":"Liège","province_NL":"Luik","province_FR":"Liège","region_NL":"Waals Gewest","region_FR":"Région wallonne","inhabitants":"16 925","zip":4630},{"NIS_code":62100,"municipality_NL":"Sprimont","municipality_FR":"Sprimont","arrondissement_NL":"Luik","arrondissement_FR":"Liège","province_NL":"Luik","province_FR":"Liège","region_NL":"Waals Gewest","region_FR":"Région wallonne","inhabitants":"14 712","zip":4140},{"NIS_code":62108,"municipality_NL":"Wezet","municipality_FR":"Visé","arrondissement_NL":"Luik","arrondissement_FR":"Liège","province_NL":"Luik","province_FR":"Liège","region_NL":"Waals Gewest","region_FR":"Région wallonne","inhabitants":"17 812","zip":4601},{"NIS_code":62118,"municipality_NL":"Grâce-Hollogne","municipality_FR":"Grâce-Hollogne","arrondissement_NL":"Luik","arrondissement_FR":"Liège","province_NL":"Luik","province_FR":"Liège","region_NL":"Waals Gewest","region_FR":"Région wallonne","inhabitants":"22 660","zip":4460},{"NIS_code":62119,"municipality_NL":"Blégny","municipality_FR":"Blégny","arrondissement_NL":"Luik","arrondissement_FR":"Liège","province_NL":"Luik","province_FR":"Liège","region_NL":"Waals Gewest","region_FR":"Région wallonne","inhabitants":"13 292","zip":4671},{"NIS_code":62120,"municipality_NL":"Flémalle","municipality_FR":"Flémalle","arrondissement_NL":"Luik","arrondissement_FR":"Liège","province_NL":"Luik","province_FR":"Liège","region_NL":"Waals Gewest","region_FR":"Région wallonne","inhabitants":"26 304","zip":4400},{"NIS_code":62121,"municipality_NL":"Neupré","municipality_FR":"Neupré","arrondissement_NL":"Luik","arrondissement_FR":"Liège","province_NL":"Luik","province_FR":"Liège","region_NL":"Waals Gewest","region_FR":"Région wallonne","inhabitants":"9 923","zip":4120},{"NIS_code":62122,"municipality_NL":"Trooz","municipality_FR":"Trooz","arrondissement_NL":"Luik","arrondissement_FR":"Liège","province_NL":"Luik","province_FR":"Liège","region_NL":"Waals Gewest","region_FR":"Région wallonne","inhabitants":"8 199","zip":4870},{"NIS_code":63001,"municipality_NL":"Amel","municipality_FR":"Amblève","arrondissement_NL":"Verviers","arrondissement_FR":"Verviers","province_NL":"Luik","province_FR":"Liège","region_NL":"Waals Gewest","region_FR":"Région wallonne","inhabitants":"5 474","zip":4770},{"NIS_code":63003,"municipality_NL":"Aubel","municipality_FR":"Aubel","arrondissement_NL":"Verviers","arrondissement_FR":"Verviers","province_NL":"Luik","province_FR":"Liège","region_NL":"Waals Gewest","region_FR":"Région wallonne","inhabitants":"4 288","zip":4880},{"NIS_code":63004,"municipality_NL":"Baelen","municipality_FR":"Baelen","arrondissement_NL":"Verviers","arrondissement_FR":"Verviers","province_NL":"Luik","province_FR":"Liège","region_NL":"Waals Gewest","region_FR":"Région wallonne","inhabitants":"4 454","zip":4837},{"NIS_code":63012,"municipality_NL":"Büllingen","municipality_FR":"Bullange","arrondissement_NL":"Verviers","arrondissement_FR":"Verviers","province_NL":"Luik","province_FR":"Liège","region_NL":"Waals Gewest","region_FR":"Région wallonne","inhabitants":"5 478","zip":4760},{"NIS_code":63013,"municipality_NL":"Bütgenbach","municipality_FR":"Butgenbach","arrondissement_NL":"Verviers","arrondissement_FR":"Verviers","province_NL":"Luik","province_FR":"Liège","region_NL":"Waals Gewest","region_FR":"Région wallonne","inhabitants":"5 610","zip":4750},{"NIS_code":63020,"municipality_NL":"Dison","municipality_FR":"Dison","arrondissement_NL":"Verviers","arrondissement_FR":"Verviers","province_NL":"Luik","province_FR":"Liège","region_NL":"Waals Gewest","region_FR":"Région wallonne","inhabitants":"15 248","zip":4821},{"NIS_code":63023,"municipality_NL":"Eupen","municipality_FR":"Eupen","arrondissement_NL":"Verviers","arrondissement_FR":"Verviers","province_NL":"Luik","province_FR":"Liège","region_NL":"Waals Gewest","region_FR":"Région wallonne","inhabitants":"19 677","zip":4700},{"NIS_code":63035,"municipality_NL":"Herve","municipality_FR":"Herve","arrondissement_NL":"Verviers","arrondissement_FR":"Verviers","province_NL":"Luik","province_FR":"Liège","region_NL":"Waals Gewest","region_FR":"Région wallonne","inhabitants":"17 609","zip":4651},{"NIS_code":63038,"municipality_NL":"Jalhay","municipality_FR":"Jalhay","arrondissement_NL":"Verviers","arrondissement_FR":"Verviers","province_NL":"Luik","province_FR":"Liège","region_NL":"Waals Gewest","region_FR":"Région wallonne","inhabitants":"8 585","zip":4845},{"NIS_code":63040,"municipality_NL":"Kelmis","municipality_FR":"La Calamine","arrondissement_NL":"Verviers","arrondissement_FR":"Verviers","province_NL":"Luik","province_FR":"Liège","region_NL":"Waals Gewest","region_FR":"Région wallonne","inhabitants":"11 108","zip":4728},{"NIS_code":63045,"municipality_NL":"Lierneux","municipality_FR":"Lierneux","arrondissement_NL":"Verviers","arrondissement_FR":"Verviers","province_NL":"Luik","province_FR":"Liège","region_NL":"Waals Gewest","region_FR":"Région wallonne","inhabitants":"3 614","zip":4990},{"NIS_code":63046,"municipality_NL":"Limburg","municipality_FR":"Limbourg","arrondissement_NL":"Verviers","arrondissement_FR":"Verviers","province_NL":"Luik","province_FR":"Liège","region_NL":"Waals Gewest","region_FR":"Région wallonne","inhabitants":"5 912","zip":4831},{"NIS_code":63048,"municipality_NL":"Lontzen","municipality_FR":"Lontzen","arrondissement_NL":"Verviers","arrondissement_FR":"Verviers","province_NL":"Luik","province_FR":"Liège","region_NL":"Waals Gewest","region_FR":"Région wallonne","inhabitants":"5 764","zip":4710},{"NIS_code":63049,"municipality_NL":"Malmedy","municipality_FR":"Malmedy","arrondissement_NL":"Verviers","arrondissement_FR":"Verviers","province_NL":"Luik","province_FR":"Liège","region_NL":"Waals Gewest","region_FR":"Région wallonne","inhabitants":"12 741","zip":4960},{"NIS_code":63057,"municipality_NL":"Olne","municipality_FR":"Olne","arrondissement_NL":"Verviers","arrondissement_FR":"Verviers","province_NL":"Luik","province_FR":"Liège","region_NL":"Waals Gewest","region_FR":"Région wallonne","inhabitants":"4 080","zip":4877},{"NIS_code":63058,"municipality_NL":"Pepinster","municipality_FR":"Pepinster","arrondissement_NL":"Verviers","arrondissement_FR":"Verviers","province_NL":"Luik","province_FR":"Liège","region_NL":"Waals Gewest","region_FR":"Région wallonne","inhabitants":"9 772","zip":4860},{"NIS_code":63061,"municipality_NL":"Raeren","municipality_FR":"Raeren","arrondissement_NL":"Verviers","arrondissement_FR":"Verviers","province_NL":"Luik","province_FR":"Liège","region_NL":"Waals Gewest","region_FR":"Région wallonne","inhabitants":"10 759","zip":4731},{"NIS_code":63067,"municipality_NL":"Sankt Vith","municipality_FR":"Saint-Vith","arrondissement_NL":"Verviers","arrondissement_FR":"Verviers","province_NL":"Luik","province_FR":"Liège","region_NL":"Waals Gewest","region_FR":"Région wallonne","inhabitants":"9 722","zip":4784},{"NIS_code":63072,"municipality_NL":"Spa","municipality_FR":"Spa","arrondissement_NL":"Verviers","arrondissement_FR":"Verviers","province_NL":"Luik","province_FR":"Liège","region_NL":"Waals Gewest","region_FR":"Région wallonne","inhabitants":"10 229","zip":4900},{"NIS_code":63073,"municipality_NL":"Stavelot","municipality_FR":"Stavelot","arrondissement_NL":"Verviers","arrondissement_FR":"Verviers","province_NL":"Luik","province_FR":"Liège","region_NL":"Waals Gewest","region_FR":"Région wallonne","inhabitants":"7 169","zip":4970},{"NIS_code":63075,"municipality_NL":"Stoumont","municipality_FR":"Stoumont","arrondissement_NL":"Verviers","arrondissement_FR":"Verviers","province_NL":"Luik","province_FR":"Liège","region_NL":"Waals Gewest","region_FR":"Région wallonne","inhabitants":"3 167","zip":4987},{"NIS_code":63076,"municipality_NL":"Theux","municipality_FR":"Theux","arrondissement_NL":"Verviers","arrondissement_FR":"Verviers","province_NL":"Luik","province_FR":"Liège","region_NL":"Waals Gewest","region_FR":"Région wallonne","inhabitants":"12 031","zip":4910},{"NIS_code":63079,"municipality_NL":"Verviers","municipality_FR":"Verviers","arrondissement_NL":"Verviers","arrondissement_FR":"Verviers","province_NL":"Luik","province_FR":"Liège","region_NL":"Waals Gewest","region_FR":"Région wallonne","inhabitants":"55 207","zip":4800},{"NIS_code":63080,"municipality_NL":"Weismes","municipality_FR":"Waimes","arrondissement_NL":"Verviers","arrondissement_FR":"Verviers","province_NL":"Luik","province_FR":"Liège","region_NL":"Waals Gewest","region_FR":"Région wallonne","inhabitants":"7 425","zip":4950},{"NIS_code":63084,"municipality_NL":"Welkenraedt","municipality_FR":"Welkenraedt","arrondissement_NL":"Verviers","arrondissement_FR":"Verviers","province_NL":"Luik","province_FR":"Liège","region_NL":"Waals Gewest","region_FR":"Région wallonne","inhabitants":"10 002","zip":4841},{"NIS_code":63086,"municipality_NL":"Trois-Ponts","municipality_FR":"Trois-Ponts","arrondissement_NL":"Verviers","arrondissement_FR":"Verviers","province_NL":"Luik","province_FR":"Liège","region_NL":"Waals Gewest","region_FR":"Région wallonne","inhabitants":"2 553","zip":4983},{"NIS_code":63087,"municipality_NL":"Burg-Reuland","municipality_FR":"Burg-Reuland","arrondissement_NL":"Verviers","arrondissement_FR":"Verviers","province_NL":"Luik","province_FR":"Liège","region_NL":"Waals Gewest","region_FR":"Région wallonne","inhabitants":"3 935","zip":4790},{"NIS_code":63088,"municipality_NL":"Plombières","municipality_FR":"Plombières","arrondissement_NL":"Verviers","arrondissement_FR":"Verviers","province_NL":"Luik","province_FR":"Liège","region_NL":"Waals Gewest","region_FR":"Région wallonne","inhabitants":"10 459","zip":4851},{"NIS_code":63089,"municipality_NL":"Thimister-Clermont","municipality_FR":"Thimister-Clermont","arrondissement_NL":"Verviers","arrondissement_FR":"Verviers","province_NL":"Luik","province_FR":"Liège","region_NL":"Waals Gewest","region_FR":"Région wallonne","inhabitants":"5 700","zip":4890},{"NIS_code":64008,"municipality_NL":"Berloz","municipality_FR":"Berloz","arrondissement_NL":"Borgworm","arrondissement_FR":"Waremme","province_NL":"Luik","province_FR":"Liège","region_NL":"Waals Gewest","region_FR":"Région wallonne","inhabitants":"3 132","zip":4257},{"NIS_code":64015,"municipality_NL":"Braives","municipality_FR":"Braives","arrondissement_NL":"Borgworm","arrondissement_FR":"Waremme","province_NL":"Luik","province_FR":"Liège","region_NL":"Waals Gewest","region_FR":"Région wallonne","inhabitants":"6 375","zip":4260},{"NIS_code":64021,"municipality_NL":"Crisnée","municipality_FR":"Crisnée","arrondissement_NL":"Borgworm","arrondissement_FR":"Waremme","province_NL":"Luik","province_FR":"Liège","region_NL":"Waals Gewest","region_FR":"Région wallonne","inhabitants":"3 412","zip":4367},{"NIS_code":64023,"municipality_NL":"Donceel","municipality_FR":"Donceel","arrondissement_NL":"Borgworm","arrondissement_FR":"Waremme","province_NL":"Luik","province_FR":"Liège","region_NL":"Waals Gewest","region_FR":"Région wallonne","inhabitants":"3 060","zip":4357},{"NIS_code":64025,"municipality_NL":"Fexhe-le-Haut-Clocher","municipality_FR":"Fexhe-le-Haut-Clocher","arrondissement_NL":"Borgworm","arrondissement_FR":"Waremme","province_NL":"Luik","province_FR":"Liège","region_NL":"Waals Gewest","region_FR":"Région wallonne","inhabitants":"3 233","zip":4347},{"NIS_code":64029,"municipality_NL":"Geer","municipality_FR":"Geer","arrondissement_NL":"Borgworm","arrondissement_FR":"Waremme","province_NL":"Luik","province_FR":"Liège","region_NL":"Waals Gewest","region_FR":"Région wallonne","inhabitants":"3 485","zip":4250},{"NIS_code":64034,"municipality_NL":"Hannuit","municipality_FR":"Hannut","arrondissement_NL":"Borgworm","arrondissement_FR":"Waremme","province_NL":"Luik","province_FR":"Liège","region_NL":"Waals Gewest","region_FR":"Région wallonne","inhabitants":"16 571","zip":4280},{"NIS_code":64047,"municipality_NL":"Lijsem","municipality_FR":"Lincent","arrondissement_NL":"Borgworm","arrondissement_FR":"Waremme","province_NL":"Luik","province_FR":"Liège","region_NL":"Waals Gewest","region_FR":"Région wallonne","inhabitants":"3 311","zip":4287},{"NIS_code":64056,"municipality_NL":"Oerle","municipality_FR":"Oreye","arrondissement_NL":"Borgworm","arrondissement_FR":"Waremme","province_NL":"Luik","province_FR":"Liège","region_NL":"Waals Gewest","region_FR":"Région wallonne","inhabitants":"3 895","zip":4360},{"NIS_code":64063,"municipality_NL":"Remicourt","municipality_FR":"Remicourt","arrondissement_NL":"Borgworm","arrondissement_FR":"Waremme","province_NL":"Luik","province_FR":"Liège","region_NL":"Waals Gewest","region_FR":"Région wallonne","inhabitants":"5 906","zip":4351},{"NIS_code":64065,"municipality_NL":"Saint-Georges-sur-Meuse","municipality_FR":"Saint-Georges-sur-Meuse","arrondissement_NL":"Borgworm","arrondissement_FR":"Waremme","province_NL":"Luik","province_FR":"Liège","region_NL":"Waals Gewest","region_FR":"Région wallonne","inhabitants":"6 803","zip":4470},{"NIS_code":64074,"municipality_NL":"Borgworm","municipality_FR":"Waremme","arrondissement_NL":"Borgworm","arrondissement_FR":"Waremme","province_NL":"Luik","province_FR":"Liège","region_NL":"Waals Gewest","region_FR":"Région wallonne","inhabitants":"15 334","zip":4300},{"NIS_code":64075,"municipality_NL":"Wasseiges","municipality_FR":"Wasseiges","arrondissement_NL":"Borgworm","arrondissement_FR":"Waremme","province_NL":"Luik","province_FR":"Liège","region_NL":"Waals Gewest","region_FR":"Région wallonne","inhabitants":"2 937","zip":4219},{"NIS_code":64076,"municipality_NL":"Faimes","municipality_FR":"Faimes","arrondissement_NL":"Borgworm","arrondissement_FR":"Waremme","province_NL":"Luik","province_FR":"Liège","region_NL":"Waals Gewest","region_FR":"Région wallonne","inhabitants":"3 935","zip":4317},{"NIS_code":71002,"municipality_NL":"As","municipality_FR":"As","arrondissement_NL":"Hasselt","arrondissement_FR":"Hasselt","province_NL":"Limburg","province_FR":"Limbourg","region_NL":"Vlaams Gewest","region_FR":"Région flamande","inhabitants":"8 202","zip":3665},{"NIS_code":71004,"municipality_NL":"Beringen","municipality_FR":"Beringen","arrondissement_NL":"Hasselt","arrondissement_FR":"Hasselt","province_NL":"Limburg","province_FR":"Limbourg","region_NL":"Vlaams Gewest","region_FR":"Région flamande","inhabitants":"46 346","zip":3580},{"NIS_code":71011,"municipality_NL":"Diepenbeek","municipality_FR":"Diepenbeek","arrondissement_NL":"Hasselt","arrondissement_FR":"Hasselt","province_NL":"Limburg","province_FR":"Limbourg","region_NL":"Vlaams Gewest","region_FR":"Région flamande","inhabitants":"19 031","zip":3590},{"NIS_code":71016,"municipality_NL":"Genk","municipality_FR":"Genk","arrondissement_NL":"Hasselt","arrondissement_FR":"Hasselt","province_NL":"Limburg","province_FR":"Limbourg","region_NL":"Vlaams Gewest","region_FR":"Région flamande","inhabitants":"66 227","zip":3600},{"NIS_code":71017,"municipality_NL":"Gingelom","municipality_FR":"Gingelom","arrondissement_NL":"Hasselt","arrondissement_FR":"Hasselt","province_NL":"Limburg","province_FR":"Limbourg","region_NL":"Vlaams Gewest","region_FR":"Région flamande","inhabitants":"8 405","zip":3890},{"NIS_code":71020,"municipality_NL":"Halen","municipality_FR":"Halen","arrondissement_NL":"Hasselt","arrondissement_FR":"Hasselt","province_NL":"Limburg","province_FR":"Limbourg","region_NL":"Vlaams Gewest","region_FR":"Région flamande","inhabitants":"9 427","zip":3545},{"NIS_code":71022,"municipality_NL":"Hasselt","municipality_FR":"Hasselt","arrondissement_NL":"Hasselt","arrondissement_FR":"Hasselt","province_NL":"Limburg","province_FR":"Limbourg","region_NL":"Vlaams Gewest","region_FR":"Région flamande","inhabitants":"78 296","zip":3500},{"NIS_code":71024,"municipality_NL":"Herk-de-Stad","municipality_FR":"Herck-la-Ville","arrondissement_NL":"Hasselt","arrondissement_FR":"Hasselt","province_NL":"Limburg","province_FR":"Limbourg","region_NL":"Vlaams Gewest","region_FR":"Région flamande","inhabitants":"12 636","zip":3540},{"NIS_code":71034,"municipality_NL":"Leopoldsburg","municipality_FR":"Bourg-Léopold","arrondissement_NL":"Hasselt","arrondissement_FR":"Hasselt","province_NL":"Limburg","province_FR":"Limbourg","region_NL":"Vlaams Gewest","region_FR":"Région flamande","inhabitants":"15 755","zip":3971},{"NIS_code":71037,"municipality_NL":"Lummen","municipality_FR":"Lummen","arrondissement_NL":"Hasselt","arrondissement_FR":"Hasselt","province_NL":"Limburg","province_FR":"Limbourg","region_NL":"Vlaams Gewest","region_FR":"Région flamande","inhabitants":"14 890","zip":3560},{"NIS_code":71045,"municipality_NL":"Nieuwerkerken","municipality_FR":"Nieuwerkerken","arrondissement_NL":"Hasselt","arrondissement_FR":"Hasselt","province_NL":"Limburg","province_FR":"Limbourg","region_NL":"Vlaams Gewest","region_FR":"Région flamande","inhabitants":"6 947","zip":3850},{"NIS_code":71053,"municipality_NL":"Sint-Truiden","municipality_FR":"Saint-Trond","arrondissement_NL":"Hasselt","arrondissement_FR":"Hasselt","province_NL":"Limburg","province_FR":"Limbourg","region_NL":"Vlaams Gewest","region_FR":"Région flamande","inhabitants":"40 590","zip":3800},{"NIS_code":71057,"municipality_NL":"Tessenderlo","municipality_FR":"Tessenderlo","arrondissement_NL":"Hasselt","arrondissement_FR":"Hasselt","province_NL":"Limburg","province_FR":"Limbourg","region_NL":"Vlaams Gewest","region_FR":"Région flamande","inhabitants":"18 613","zip":3980},{"NIS_code":71066,"municipality_NL":"Zonhoven","municipality_FR":"Zonhoven","arrondissement_NL":"Hasselt","arrondissement_FR":"Hasselt","province_NL":"Limburg","province_FR":"Limbourg","region_NL":"Vlaams Gewest","region_FR":"Région flamande","inhabitants":"21 237","zip":3520},{"NIS_code":71067,"municipality_NL":"Zutendaal","municipality_FR":"Zutendaal","arrondissement_NL":"Hasselt","arrondissement_FR":"Hasselt","province_NL":"Limburg","province_FR":"Limbourg","region_NL":"Vlaams Gewest","region_FR":"Région flamande","inhabitants":"7 289","zip":3690},{"NIS_code":71069,"municipality_NL":"Ham","municipality_FR":"Ham","arrondissement_NL":"Hasselt","arrondissement_FR":"Hasselt","province_NL":"Limburg","province_FR":"Limbourg","region_NL":"Vlaams Gewest","region_FR":"Région flamande","inhabitants":"10 897","zip":3945},{"NIS_code":71070,"municipality_NL":"Heusden-Zolder","municipality_FR":"Heusden-Zolder","arrondissement_NL":"Hasselt","arrondissement_FR":"Hasselt","province_NL":"Limburg","province_FR":"Limbourg","region_NL":"Vlaams Gewest","region_FR":"Région flamande","inhabitants":"33 708","zip":3550},{"NIS_code":72003,"municipality_NL":"Bocholt","municipality_FR":"Bocholt","arrondissement_NL":"Maaseik","arrondissement_FR":"Maaseik","province_NL":"Limburg","province_FR":"Limbourg","region_NL":"Vlaams Gewest","region_FR":"Région flamande","inhabitants":"13 110","zip":3950},{"NIS_code":72004,"municipality_NL":"Bree","municipality_FR":"Bree","arrondissement_NL":"Maaseik","arrondissement_FR":"Maaseik","province_NL":"Limburg","province_FR":"Limbourg","region_NL":"Vlaams Gewest","region_FR":"Région flamande","inhabitants":"16 085","zip":3960},{"NIS_code":72018,"municipality_NL":"Kinrooi","municipality_FR":"Kinrooi","arrondissement_NL":"Maaseik","arrondissement_FR":"Maaseik","province_NL":"Limburg","province_FR":"Limbourg","region_NL":"Vlaams Gewest","region_FR":"Région flamande","inhabitants":"12 174","zip":3640},{"NIS_code":72020,"municipality_NL":"Lommel","municipality_FR":"Lommel","arrondissement_NL":"Maaseik","arrondissement_FR":"Maaseik","province_NL":"Limburg","province_FR":"Limbourg","region_NL":"Vlaams Gewest","region_FR":"Région flamande","inhabitants":"34 079","zip":3920},{"NIS_code":72021,"municipality_NL":"Maaseik","municipality_FR":"Maaseik","arrondissement_NL":"Maaseik","arrondissement_FR":"Maaseik","province_NL":"Limburg","province_FR":"Limbourg","region_NL":"Vlaams Gewest","region_FR":"Région flamande","inhabitants":"25 317","zip":3680},{"NIS_code":72030,"municipality_NL":"Peer","municipality_FR":"Peer","arrondissement_NL":"Maaseik","arrondissement_FR":"Maaseik","province_NL":"Limburg","province_FR":"Limbourg","region_NL":"Vlaams Gewest","region_FR":"Région flamande","inhabitants":"16 357","zip":3990},{"NIS_code":72037,"municipality_NL":"Hamont-Achel","municipality_FR":"Hamont-Achel","arrondissement_NL":"Maaseik","arrondissement_FR":"Maaseik","province_NL":"Limburg","province_FR":"Limbourg","region_NL":"Vlaams Gewest","region_FR":"Région flamande","inhabitants":"14 369","zip":3930},{"NIS_code":72038,"municipality_NL":"Hechtel-Eksel","municipality_FR":"Hechtel-Eksel","arrondissement_NL":"Maaseik","arrondissement_FR":"Maaseik","province_NL":"Limburg","province_FR":"Limbourg","region_NL":"Vlaams Gewest","region_FR":"Région flamande","inhabitants":"12 419","zip":3941},{"NIS_code":72039,"municipality_NL":"Houthalen-Helchteren","municipality_FR":"Houthalen-Helchteren","arrondissement_NL":"Maaseik","arrondissement_FR":"Maaseik","province_NL":"Limburg","province_FR":"Limbourg","region_NL":"Vlaams Gewest","region_FR":"Région flamande","inhabitants":"30 655","zip":3530},{"NIS_code":72041,"municipality_NL":"Dilsen-Stokkem","municipality_FR":"Dilsen-Stokkem","arrondissement_NL":"Maaseik","arrondissement_FR":"Maaseik","province_NL":"Limburg","province_FR":"Limbourg","region_NL":"Vlaams Gewest","region_FR":"Région flamande","inhabitants":"20 590","zip":3650},{"NIS_code":"72042","municipality_NL":"Oudsbergen","municipality_FR":"Oudsbergen","arrondissement_NL":"Maaseik","arrondissement_FR":"Maaseik","province_NL":"Limburg","province_FR":"Limbourg","region_NL":"Vlaams Gewest","region_FR":"Région flamande","inhabitants":"23 532","zip":3660},{"NIS_code":"72043","municipality_NL":"Pelt","municipality_FR":"Pelt","arrondissement_NL":"Maaseik","arrondissement_FR":"Maaseik","province_NL":"Limburg","province_FR":"Limbourg","region_NL":"Vlaams Gewest","region_FR":"Région flamande","inhabitants":"32 902","zip":"3900"},{"NIS_code":73001,"municipality_NL":"Alken","municipality_FR":"Alken","arrondissement_NL":"Tongeren","arrondissement_FR":"Tongres","province_NL":"Limburg","province_FR":"Limbourg","region_NL":"Vlaams Gewest","region_FR":"Région flamande","inhabitants":"11 499","zip":3570},{"NIS_code":73006,"municipality_NL":"Bilzen","municipality_FR":"Bilzen","arrondissement_NL":"Tongeren","arrondissement_FR":"Tongres","province_NL":"Limburg","province_FR":"Limbourg","region_NL":"Vlaams Gewest","region_FR":"Région flamande","inhabitants":"32 328","zip":3740},{"NIS_code":73009,"municipality_NL":"Borgloon","municipality_FR":"Looz","arrondissement_NL":"Tongeren","arrondissement_FR":"Tongres","province_NL":"Limburg","province_FR":"Limbourg","region_NL":"Vlaams Gewest","region_FR":"Région flamande","inhabitants":"10 906","zip":3840},{"NIS_code":73022,"municipality_NL":"Heers","municipality_FR":"Heers","arrondissement_NL":"Tongeren","arrondissement_FR":"Tongres","province_NL":"Limburg","province_FR":"Limbourg","region_NL":"Vlaams Gewest","region_FR":"Région flamande","inhabitants":"7 391","zip":3870},{"NIS_code":73028,"municipality_NL":"Herstappe","municipality_FR":"Herstappe","arrondissement_NL":"Tongeren","arrondissement_FR":"Tongres","province_NL":"Limburg","province_FR":"Limbourg","region_NL":"Vlaams Gewest","region_FR":"Région flamande","inhabitants":"83","zip":3717},{"NIS_code":73032,"municipality_NL":"Hoeselt","municipality_FR":"Hoeselt","arrondissement_NL":"Tongeren","arrondissement_FR":"Tongres","province_NL":"Limburg","province_FR":"Limbourg","region_NL":"Vlaams Gewest","region_FR":"Région flamande","inhabitants":"9 688","zip":3730},{"NIS_code":73040,"municipality_NL":"Kortessem","municipality_FR":"Kortessem","arrondissement_NL":"Tongeren","arrondissement_FR":"Tongres","province_NL":"Limburg","province_FR":"Limbourg","region_NL":"Vlaams Gewest","region_FR":"Région flamande","inhabitants":"8 442","zip":3723},{"NIS_code":73042,"municipality_NL":"Lanaken","municipality_FR":"Lanaken","arrondissement_NL":"Tongeren","arrondissement_FR":"Tongres","province_NL":"Limburg","province_FR":"Limbourg","region_NL":"Vlaams Gewest","region_FR":"Région flamande","inhabitants":"25 841","zip":3620},{"NIS_code":73066,"municipality_NL":"Riemst","municipality_FR":"Riemst","arrondissement_NL":"Tongeren","arrondissement_FR":"Tongres","province_NL":"Limburg","province_FR":"Limbourg","region_NL":"Vlaams Gewest","region_FR":"Région flamande","inhabitants":"16 755","zip":3770},{"NIS_code":73083,"municipality_NL":"Tongeren","municipality_FR":"Tongres","arrondissement_NL":"Tongeren","arrondissement_FR":"Tongres","province_NL":"Limburg","province_FR":"Limbourg","region_NL":"Vlaams Gewest","region_FR":"Région flamande","inhabitants":"30 996","zip":3700},{"NIS_code":73098,"municipality_NL":"Wellen","municipality_FR":"Wellen","arrondissement_NL":"Tongeren","arrondissement_FR":"Tongres","province_NL":"Limburg","province_FR":"Limbourg","region_NL":"Vlaams Gewest","region_FR":"Région flamande","inhabitants":"7 372","zip":3830},{"NIS_code":73107,"municipality_NL":"Maasmechelen","municipality_FR":"Maasmechelen","arrondissement_NL":"Tongeren","arrondissement_FR":"Tongres","province_NL":"Limburg","province_FR":"Limbourg","region_NL":"Vlaams Gewest","region_FR":"Région flamande","inhabitants":"38 516","zip":3631},{"NIS_code":73109,"municipality_NL":"Voeren","municipality_FR":"Fourons","arrondissement_NL":"Tongeren","arrondissement_FR":"Tongres","province_NL":"Limburg","province_FR":"Limbourg","region_NL":"Vlaams Gewest","region_FR":"Région flamande","inhabitants":"4 146","zip":3790},{"NIS_code":81001,"municipality_NL":"Aarlen","municipality_FR":"Arlon","arrondissement_NL":"Aarlen","arrondissement_FR":"Arlon","province_NL":"Luxemburg","province_FR":"Luxembourg","region_NL":"Waals Gewest","region_FR":"Région wallonne","inhabitants":"29 858","zip":6700},{"NIS_code":81003,"municipality_NL":"Attert","municipality_FR":"Attert","arrondissement_NL":"Aarlen","arrondissement_FR":"Arlon","province_NL":"Luxemburg","province_FR":"Luxembourg","region_NL":"Waals Gewest","region_FR":"Région wallonne","inhabitants":"5 578","zip":6717},{"NIS_code":81004,"municipality_NL":"Aubange","municipality_FR":"Aubange","arrondissement_NL":"Aarlen","arrondissement_FR":"Arlon","province_NL":"Luxemburg","province_FR":"Luxembourg","region_NL":"Waals Gewest","region_FR":"Région wallonne","inhabitants":"17 093","zip":6791},{"NIS_code":81013,"municipality_NL":"Martelange","municipality_FR":"Martelange","arrondissement_NL":"Aarlen","arrondissement_FR":"Arlon","province_NL":"Luxemburg","province_FR":"Luxembourg","region_NL":"Waals Gewest","region_FR":"Région wallonne","inhabitants":"1 876","zip":6630},{"NIS_code":81015,"municipality_NL":"Messancy","municipality_FR":"Messancy","arrondissement_NL":"Aarlen","arrondissement_FR":"Arlon","province_NL":"Luxemburg","province_FR":"Luxembourg","region_NL":"Waals Gewest","region_FR":"Région wallonne","inhabitants":"8 218","zip":6782},{"NIS_code":82003,"municipality_NL":"Bastenaken","municipality_FR":"Bastogne","arrondissement_NL":"Bastenaken","arrondissement_FR":"Bastogne","province_NL":"Luxemburg","province_FR":"Luxembourg","region_NL":"Waals Gewest","region_FR":"Région wallonne","inhabitants":"15 985","zip":6600},{"NIS_code":82005,"municipality_NL":"Bertogne","municipality_FR":"Bertogne","arrondissement_NL":"Bastenaken","arrondissement_FR":"Bastogne","province_NL":"Luxemburg","province_FR":"Luxembourg","region_NL":"Waals Gewest","region_FR":"Région wallonne","inhabitants":"3 659","zip":6687},{"NIS_code":82009,"municipality_NL":"Fauvillers","municipality_FR":"Fauvillers","arrondissement_NL":"Bastenaken","arrondissement_FR":"Bastogne","province_NL":"Luxemburg","province_FR":"Luxembourg","region_NL":"Waals Gewest","region_FR":"Région wallonne","inhabitants":"2 281","zip":6637},{"NIS_code":82014,"municipality_NL":"Houffalize","municipality_FR":"Houffalize","arrondissement_NL":"Bastenaken","arrondissement_FR":"Bastogne","province_NL":"Luxemburg","province_FR":"Luxembourg","region_NL":"Waals Gewest","region_FR":"Région wallonne","inhabitants":"5 193","zip":6660},{"NIS_code":82032,"municipality_NL":"Vielsalm","municipality_FR":"Vielsalm","arrondissement_NL":"Bastenaken","arrondissement_FR":"Bastogne","province_NL":"Luxemburg","province_FR":"Luxembourg","region_NL":"Waals Gewest","region_FR":"Région wallonne","inhabitants":"7 814","zip":6690},{"NIS_code":82036,"municipality_NL":"Vaux-sur-Sûre","municipality_FR":"Vaux-sur-Sûre","arrondissement_NL":"Bastenaken","arrondissement_FR":"Bastogne","province_NL":"Luxemburg","province_FR":"Luxembourg","region_NL":"Waals Gewest","region_FR":"Région wallonne","inhabitants":"5 640","zip":6640},{"NIS_code":82037,"municipality_NL":"Gouvy","municipality_FR":"Gouvy","arrondissement_NL":"Bastenaken","arrondissement_FR":"Bastogne","province_NL":"Luxemburg","province_FR":"Luxembourg","region_NL":"Waals Gewest","region_FR":"Région wallonne","inhabitants":"5 286","zip":6672},{"NIS_code":82038,"municipality_NL":"Sainte-Ode","municipality_FR":"Sainte-Ode","arrondissement_NL":"Bastenaken","arrondissement_FR":"Bastogne","province_NL":"Luxemburg","province_FR":"Luxembourg","region_NL":"Waals Gewest","region_FR":"Région wallonne","inhabitants":"2 555","zip":6680},{"NIS_code":83012,"municipality_NL":"Durbuy","municipality_FR":"Durbuy","arrondissement_NL":"Marche-en-Famenne","arrondissement_FR":"Marche-en-Famenne","province_NL":"Luxemburg","province_FR":"Luxembourg","region_NL":"Waals Gewest","region_FR":"Région wallonne","inhabitants":"11 395","zip":6940},{"NIS_code":83013,"municipality_NL":"Erezée","municipality_FR":"Erezée","arrondissement_NL":"Marche-en-Famenne","arrondissement_FR":"Marche-en-Famenne","province_NL":"Luxemburg","province_FR":"Luxembourg","region_NL":"Waals Gewest","region_FR":"Région wallonne","inhabitants":"3 284","zip":6997},{"NIS_code":83028,"municipality_NL":"Hotton","municipality_FR":"Hotton","arrondissement_NL":"Marche-en-Famenne","arrondissement_FR":"Marche-en-Famenne","province_NL":"Luxemburg","province_FR":"Luxembourg","region_NL":"Waals Gewest","region_FR":"Région wallonne","inhabitants":"5 556","zip":6990},{"NIS_code":83031,"municipality_NL":"La Roche-en-Ardenne","municipality_FR":"La Roche-en-Ardenne","arrondissement_NL":"Marche-en-Famenne","arrondissement_FR":"Marche-en-Famenne","province_NL":"Luxemburg","province_FR":"Luxembourg","region_NL":"Waals Gewest","region_FR":"Région wallonne","inhabitants":"4 253","zip":6980},{"NIS_code":83034,"municipality_NL":"Marche-en-Famenne","municipality_FR":"Marche-en-Famenne","arrondissement_NL":"Marche-en-Famenne","arrondissement_FR":"Marche-en-Famenne","province_NL":"Luxemburg","province_FR":"Luxembourg","region_NL":"Waals Gewest","region_FR":"Région wallonne","inhabitants":"17 465","zip":6900},{"NIS_code":83040,"municipality_NL":"Nassogne","municipality_FR":"Nassogne","arrondissement_NL":"Marche-en-Famenne","arrondissement_FR":"Marche-en-Famenne","province_NL":"Luxemburg","province_FR":"Luxembourg","region_NL":"Waals Gewest","region_FR":"Région wallonne","inhabitants":"5 498","zip":6953},{"NIS_code":83044,"municipality_NL":"Rendeux","municipality_FR":"Rendeux","arrondissement_NL":"Marche-en-Famenne","arrondissement_FR":"Marche-en-Famenne","province_NL":"Luxemburg","province_FR":"Luxembourg","region_NL":"Waals Gewest","region_FR":"Région wallonne","inhabitants":"2 637","zip":6987},{"NIS_code":83049,"municipality_NL":"Tenneville","municipality_FR":"Tenneville","arrondissement_NL":"Marche-en-Famenne","arrondissement_FR":"Marche-en-Famenne","province_NL":"Luxemburg","province_FR":"Luxembourg","region_NL":"Waals Gewest","region_FR":"Région wallonne","inhabitants":"2 832","zip":6971},{"NIS_code":83055,"municipality_NL":"Manhay","municipality_FR":"Manhay","arrondissement_NL":"Marche-en-Famenne","arrondissement_FR":"Marche-en-Famenne","province_NL":"Luxemburg","province_FR":"Luxembourg","region_NL":"Waals Gewest","region_FR":"Région wallonne","inhabitants":"3 556","zip":6960},{"NIS_code":84009,"municipality_NL":"Bertrix","municipality_FR":"Bertrix","arrondissement_NL":"Neufchâteau","arrondissement_FR":"Neufchâteau","province_NL":"Luxemburg","province_FR":"Luxembourg","region_NL":"Waals Gewest","region_FR":"Région wallonne","inhabitants":"8 793","zip":6880},{"NIS_code":84010,"municipality_NL":"Bouillon","municipality_FR":"Bouillon","arrondissement_NL":"Neufchâteau","arrondissement_FR":"Neufchâteau","province_NL":"Luxemburg","province_FR":"Luxembourg","region_NL":"Waals Gewest","region_FR":"Région wallonne","inhabitants":"5 411","zip":6834},{"NIS_code":84016,"municipality_NL":"Daverdisse","municipality_FR":"Daverdisse","arrondissement_NL":"Neufchâteau","arrondissement_FR":"Neufchâteau","province_NL":"Luxemburg","province_FR":"Luxembourg","region_NL":"Waals Gewest","region_FR":"Région wallonne","inhabitants":"1 395","zip":6929},{"NIS_code":84029,"municipality_NL":"Herbeumont","municipality_FR":"Herbeumont","arrondissement_NL":"Neufchâteau","arrondissement_FR":"Neufchâteau","province_NL":"Luxemburg","province_FR":"Luxembourg","region_NL":"Waals Gewest","region_FR":"Région wallonne","inhabitants":"1 624","zip":6887},{"NIS_code":84033,"municipality_NL":"Léglise","municipality_FR":"Léglise","arrondissement_NL":"Neufchâteau","arrondissement_FR":"Neufchâteau","province_NL":"Luxemburg","province_FR":"Luxembourg","region_NL":"Waals Gewest","region_FR":"Région wallonne","inhabitants":"5 471","zip":6860},{"NIS_code":84035,"municipality_NL":"Libin","municipality_FR":"Libin","arrondissement_NL":"Neufchâteau","arrondissement_FR":"Neufchâteau","province_NL":"Luxemburg","province_FR":"Luxembourg","region_NL":"Waals Gewest","region_FR":"Région wallonne","inhabitants":"5 223","zip":6890},{"NIS_code":84043,"municipality_NL":"Neufchâteau","municipality_FR":"Neufchâteau","arrondissement_NL":"Neufchâteau","arrondissement_FR":"Neufchâteau","province_NL":"Luxemburg","province_FR":"Luxembourg","region_NL":"Waals Gewest","region_FR":"Région wallonne","inhabitants":"7 699","zip":6840},{"NIS_code":84050,"municipality_NL":"Paliseul","municipality_FR":"Paliseul","arrondissement_NL":"Neufchâteau","arrondissement_FR":"Neufchâteau","province_NL":"Luxemburg","province_FR":"Luxembourg","region_NL":"Waals Gewest","region_FR":"Région wallonne","inhabitants":"5 389","zip":6850},{"NIS_code":84059,"municipality_NL":"Saint-Hubert","municipality_FR":"Saint-Hubert","arrondissement_NL":"Neufchâteau","arrondissement_FR":"Neufchâteau","province_NL":"Luxemburg","province_FR":"Luxembourg","region_NL":"Waals Gewest","region_FR":"Région wallonne","inhabitants":"5 569","zip":6870},{"NIS_code":84068,"municipality_NL":"Tellin","municipality_FR":"Tellin","arrondissement_NL":"Neufchâteau","arrondissement_FR":"Neufchâteau","province_NL":"Luxemburg","province_FR":"Luxembourg","region_NL":"Waals Gewest","region_FR":"Région wallonne","inhabitants":"2 432","zip":6927},{"NIS_code":84075,"municipality_NL":"Wellin","municipality_FR":"Wellin","arrondissement_NL":"Neufchâteau","arrondissement_FR":"Neufchâteau","province_NL":"Luxemburg","province_FR":"Luxembourg","region_NL":"Waals Gewest","region_FR":"Région wallonne","inhabitants":"3 093","zip":6921},{"NIS_code":84077,"municipality_NL":"Libramont-Chevigny","municipality_FR":"Libramont-Chevigny","arrondissement_NL":"Neufchâteau","arrondissement_FR":"Neufchâteau","province_NL":"Luxemburg","province_FR":"Luxembourg","region_NL":"Waals Gewest","region_FR":"Région wallonne","inhabitants":"11 276","zip":6800},{"NIS_code":85007,"municipality_NL":"Chiny","municipality_FR":"Chiny","arrondissement_NL":"Virton","arrondissement_FR":"Virton","province_NL":"Luxemburg","province_FR":"Luxembourg","region_NL":"Waals Gewest","region_FR":"Région wallonne","inhabitants":"5 180","zip":6810},{"NIS_code":85009,"municipality_NL":"Etalle","municipality_FR":"Etalle","arrondissement_NL":"Virton","arrondissement_FR":"Virton","province_NL":"Luxemburg","province_FR":"Luxembourg","region_NL":"Waals Gewest","region_FR":"Région wallonne","inhabitants":"5 877","zip":6743},{"NIS_code":85011,"municipality_NL":"Florenville","municipality_FR":"Florenville","arrondissement_NL":"Virton","arrondissement_FR":"Virton","province_NL":"Luxemburg","province_FR":"Luxembourg","region_NL":"Waals Gewest","region_FR":"Région wallonne","inhabitants":"5 578","zip":6824},{"NIS_code":85024,"municipality_NL":"Meix-devant-Virton","municipality_FR":"Meix-devant-Virton","arrondissement_NL":"Virton","arrondissement_FR":"Virton","province_NL":"Luxemburg","province_FR":"Luxembourg","region_NL":"Waals Gewest","region_FR":"Région wallonne","inhabitants":"2 809","zip":6769},{"NIS_code":85026,"municipality_NL":"Musson","municipality_FR":"Musson","arrondissement_NL":"Virton","arrondissement_FR":"Virton","province_NL":"Luxemburg","province_FR":"Luxembourg","region_NL":"Waals Gewest","region_FR":"Région wallonne","inhabitants":"4 551","zip":6750},{"NIS_code":85034,"municipality_NL":"Saint-Léger","municipality_FR":"Saint-Léger","arrondissement_NL":"Virton","arrondissement_FR":"Virton","province_NL":"Luxemburg","province_FR":"Luxembourg","region_NL":"Waals Gewest","region_FR":"Région wallonne","inhabitants":"3 608","zip":6747},{"NIS_code":85039,"municipality_NL":"Tintigny","municipality_FR":"Tintigny","arrondissement_NL":"Virton","arrondissement_FR":"Virton","province_NL":"Luxemburg","province_FR":"Luxembourg","region_NL":"Waals Gewest","region_FR":"Région wallonne","inhabitants":"4 300","zip":5555},{"NIS_code":85045,"municipality_NL":"Virton","municipality_FR":"Virton","arrondissement_NL":"Virton","arrondissement_FR":"Virton","province_NL":"Luxemburg","province_FR":"Luxembourg","region_NL":"Waals Gewest","region_FR":"Région wallonne","inhabitants":"11 332","zip":6760},{"NIS_code":85046,"municipality_NL":"Habay","municipality_FR":"Habay","arrondissement_NL":"Virton","arrondissement_FR":"Virton","province_NL":"Luxemburg","province_FR":"Luxembourg","region_NL":"Waals Gewest","region_FR":"Région wallonne","inhabitants":"8 409","zip":6721},{"NIS_code":85047,"municipality_NL":"Rouvroy","municipality_FR":"Rouvroy","arrondissement_NL":"Virton","arrondissement_FR":"Virton","province_NL":"Luxemburg","province_FR":"Luxembourg","region_NL":"Waals Gewest","region_FR":"Région wallonne","inhabitants":"2 107","zip":6767},{"NIS_code":91005,"municipality_NL":"Anhée","municipality_FR":"Anhée","arrondissement_NL":"Dinant","arrondissement_FR":"Dinant","province_NL":"Namen","province_FR":"Namur","region_NL":"Waals Gewest","region_FR":"Région wallonne","inhabitants":"7 046","zip":5537},{"NIS_code":91013,"municipality_NL":"Beauraing","municipality_FR":"Beauraing","arrondissement_NL":"Dinant","arrondissement_FR":"Dinant","province_NL":"Namen","province_FR":"Namur","region_NL":"Waals Gewest","region_FR":"Région wallonne","inhabitants":"9 159","zip":5570},{"NIS_code":91015,"municipality_NL":"Bièvre","municipality_FR":"Bièvre","arrondissement_NL":"Dinant","arrondissement_FR":"Dinant","province_NL":"Namen","province_FR":"Namur","region_NL":"Waals Gewest","region_FR":"Région wallonne","inhabitants":"3 355","zip":5555},{"NIS_code":91030,"municipality_NL":"Ciney","municipality_FR":"Ciney","arrondissement_NL":"Dinant","arrondissement_FR":"Dinant","province_NL":"Namen","province_FR":"Namur","region_NL":"Waals Gewest","region_FR":"Région wallonne","inhabitants":"16 580","zip":5590},{"NIS_code":91034,"municipality_NL":"Dinant","municipality_FR":"Dinant","arrondissement_NL":"Dinant","arrondissement_FR":"Dinant","province_NL":"Namen","province_FR":"Namur","region_NL":"Waals Gewest","region_FR":"Région wallonne","inhabitants":"13 451","zip":5500},{"NIS_code":91054,"municipality_NL":"Gedinne","municipality_FR":"Gedinne","arrondissement_NL":"Dinant","arrondissement_FR":"Dinant","province_NL":"Namen","province_FR":"Namur","region_NL":"Waals Gewest","region_FR":"Région wallonne","inhabitants":"4 632","zip":5575},{"NIS_code":91059,"municipality_NL":"Hamois","municipality_FR":"Hamois","arrondissement_NL":"Dinant","arrondissement_FR":"Dinant","province_NL":"Namen","province_FR":"Namur","region_NL":"Waals Gewest","region_FR":"Région wallonne","inhabitants":"7 357","zip":5362},{"NIS_code":91064,"municipality_NL":"Havelange","municipality_FR":"Havelange","arrondissement_NL":"Dinant","arrondissement_FR":"Dinant","province_NL":"Namen","province_FR":"Namur","region_NL":"Waals Gewest","region_FR":"Région wallonne","inhabitants":"5 175","zip":5370},{"NIS_code":91072,"municipality_NL":"Houyet","municipality_FR":"Houyet","arrondissement_NL":"Dinant","arrondissement_FR":"Dinant","province_NL":"Namen","province_FR":"Namur","region_NL":"Waals Gewest","region_FR":"Région wallonne","inhabitants":"4 956","zip":4317},{"NIS_code":91103,"municipality_NL":"Onhaye","municipality_FR":"Onhaye","arrondissement_NL":"Dinant","arrondissement_FR":"Dinant","province_NL":"Namen","province_FR":"Namur","region_NL":"Waals Gewest","region_FR":"Région wallonne","inhabitants":"3 241","zip":5520},{"NIS_code":91114,"municipality_NL":"Rochefort","municipality_FR":"Rochefort","arrondissement_NL":"Dinant","arrondissement_FR":"Dinant","province_NL":"Namen","province_FR":"Namur","region_NL":"Waals Gewest","region_FR":"Région wallonne","inhabitants":"12 611","zip":5580},{"NIS_code":91120,"municipality_NL":"Somme-Leuze","municipality_FR":"Somme-Leuze","arrondissement_NL":"Dinant","arrondissement_FR":"Dinant","province_NL":"Namen","province_FR":"Namur","region_NL":"Waals Gewest","region_FR":"Région wallonne","inhabitants":"5 641","zip":5377},{"NIS_code":91141,"municipality_NL":"Yvoir","municipality_FR":"Yvoir","arrondissement_NL":"Dinant","arrondissement_FR":"Dinant","province_NL":"Namen","province_FR":"Namur","region_NL":"Waals Gewest","region_FR":"Région wallonne","inhabitants":"9 167","zip":5530},{"NIS_code":91142,"municipality_NL":"Hastière","municipality_FR":"Hastière","arrondissement_NL":"Dinant","arrondissement_FR":"Dinant","province_NL":"Namen","province_FR":"Namur","region_NL":"Waals Gewest","region_FR":"Région wallonne","inhabitants":"6 022","zip":5544},{"NIS_code":91143,"municipality_NL":"Vresse-sur-Semois","municipality_FR":"Vresse-sur-Semois","arrondissement_NL":"Dinant","arrondissement_FR":"Dinant","province_NL":"Namen","province_FR":"Namur","region_NL":"Waals Gewest","region_FR":"Région wallonne","inhabitants":"2 615","zip":5550},{"NIS_code":92003,"municipality_NL":"Andenne","municipality_FR":"Andenne","arrondissement_NL":"Namen","arrondissement_FR":"Namur","province_NL":"Namen","province_FR":"Namur","region_NL":"Waals Gewest","region_FR":"Région wallonne","inhabitants":"27 391","zip":5300},{"NIS_code":92006,"municipality_NL":"Assesse","municipality_FR":"Assesse","arrondissement_NL":"Namen","arrondissement_FR":"Namur","province_NL":"Namen","province_FR":"Namur","region_NL":"Waals Gewest","region_FR":"Région wallonne","inhabitants":"7 032","zip":5330},{"NIS_code":92035,"municipality_NL":"Eghezée","municipality_FR":"Eghezée","arrondissement_NL":"Namen","arrondissement_FR":"Namur","province_NL":"Namen","province_FR":"Namur","region_NL":"Waals Gewest","region_FR":"Région wallonne","inhabitants":"16 337","zip":5310},{"NIS_code":92045,"municipality_NL":"Floreffe","municipality_FR":"Floreffe","arrondissement_NL":"Namen","arrondissement_FR":"Namur","province_NL":"Namen","province_FR":"Namur","region_NL":"Waals Gewest","region_FR":"Région wallonne","inhabitants":"8 144","zip":5150},{"NIS_code":92048,"municipality_NL":"Fosses-la-Ville","municipality_FR":"Fosses-la-Ville","arrondissement_NL":"Namen","arrondissement_FR":"Namur","province_NL":"Namen","province_FR":"Namur","region_NL":"Waals Gewest","region_FR":"Région wallonne","inhabitants":"10 388","zip":5070},{"NIS_code":92054,"municipality_NL":"Gesves","municipality_FR":"Gesves","arrondissement_NL":"Namen","arrondissement_FR":"Namur","province_NL":"Namen","province_FR":"Namur","region_NL":"Waals Gewest","region_FR":"Région wallonne","inhabitants":"7 202","zip":5340},{"NIS_code":92087,"municipality_NL":"Mettet","municipality_FR":"Mettet","arrondissement_NL":"Namen","arrondissement_FR":"Namur","province_NL":"Namen","province_FR":"Namur","region_NL":"Waals Gewest","region_FR":"Région wallonne","inhabitants":"13 102","zip":5640},{"NIS_code":92094,"municipality_NL":"Namen","municipality_FR":"Namur","arrondissement_NL":"Namen","arrondissement_FR":"Namur","province_NL":"Namen","province_FR":"Namur","region_NL":"Waals Gewest","region_FR":"Région wallonne","inhabitants":"110 779","zip":5000},{"NIS_code":92097,"municipality_NL":"Ohey","municipality_FR":"Ohey","arrondissement_NL":"Namen","arrondissement_FR":"Namur","province_NL":"Namen","province_FR":"Namur","region_NL":"Waals Gewest","region_FR":"Région wallonne","inhabitants":"5 127","zip":5350},{"NIS_code":92101,"municipality_NL":"Profondeville","municipality_FR":"Profondeville","arrondissement_NL":"Namen","arrondissement_FR":"Namur","province_NL":"Namen","province_FR":"Namur","region_NL":"Waals Gewest","region_FR":"Région wallonne","inhabitants":"12 220","zip":5170},{"NIS_code":92114,"municipality_NL":"Sombreffe","municipality_FR":"Sombreffe","arrondissement_NL":"Namen","arrondissement_FR":"Namur","province_NL":"Namen","province_FR":"Namur","region_NL":"Waals Gewest","region_FR":"Région wallonne","inhabitants":"8 440","zip":5140},{"NIS_code":92137,"municipality_NL":"Sambreville","municipality_FR":"Sambreville","arrondissement_NL":"Namen","arrondissement_FR":"Namur","province_NL":"Namen","province_FR":"Namur","region_NL":"Waals Gewest","region_FR":"Région wallonne","inhabitants":"28 288","zip":5060},{"NIS_code":92138,"municipality_NL":"Fernelmont","municipality_FR":"Fernelmont","arrondissement_NL":"Namen","arrondissement_FR":"Namur","province_NL":"Namen","province_FR":"Namur","region_NL":"Waals Gewest","region_FR":"Région wallonne","inhabitants":"8 032","zip":5380},{"NIS_code":92140,"municipality_NL":"Jemeppe-sur-Sambre","municipality_FR":"Jemeppe-sur-Sambre","arrondissement_NL":"Namen","arrondissement_FR":"Namur","province_NL":"Namen","province_FR":"Namur","region_NL":"Waals Gewest","region_FR":"Région wallonne","inhabitants":"19 190","zip":5190},{"NIS_code":92141,"municipality_NL":"La Bruyère","municipality_FR":"La Bruyère","arrondissement_NL":"Namen","arrondissement_FR":"Namur","province_NL":"Namen","province_FR":"Namur","region_NL":"Waals Gewest","region_FR":"Région wallonne","inhabitants":"9 276","zip":5081},{"NIS_code":92142,"municipality_NL":"Gembloux","municipality_FR":"Gembloux","arrondissement_NL":"Namen","arrondissement_FR":"Namur","province_NL":"Namen","province_FR":"Namur","region_NL":"Waals Gewest","region_FR":"Région wallonne","inhabitants":"26 014","zip":5030},{"NIS_code":93010,"municipality_NL":"Cerfontaine","municipality_FR":"Cerfontaine","arrondissement_NL":"Philippeville","arrondissement_FR":"Philippeville","province_NL":"Namen","province_FR":"Namur","region_NL":"Waals Gewest","region_FR":"Région wallonne","inhabitants":"4 923","zip":5630},{"NIS_code":93014,"municipality_NL":"Couvin","municipality_FR":"Couvin","arrondissement_NL":"Philippeville","arrondissement_FR":"Philippeville","province_NL":"Namen","province_FR":"Namur","region_NL":"Waals Gewest","region_FR":"Région wallonne","inhabitants":"13 747","zip":5660},{"NIS_code":93018,"municipality_NL":"Doische","municipality_FR":"Doische","arrondissement_NL":"Philippeville","arrondissement_FR":"Philippeville","province_NL":"Namen","province_FR":"Namur","region_NL":"Waals Gewest","region_FR":"Région wallonne","inhabitants":"2 997","zip":5680},{"NIS_code":93022,"municipality_NL":"Florennes","municipality_FR":"Florennes","arrondissement_NL":"Philippeville","arrondissement_FR":"Philippeville","province_NL":"Namen","province_FR":"Namur","region_NL":"Waals Gewest","region_FR":"Région wallonne","inhabitants":"11 310","zip":5620},{"NIS_code":93056,"municipality_NL":"Philippeville","municipality_FR":"Philippeville","arrondissement_NL":"Philippeville","arrondissement_FR":"Philippeville","province_NL":"Namen","province_FR":"Namur","region_NL":"Waals Gewest","region_FR":"Région wallonne","inhabitants":"9 289","zip":5600},{"NIS_code":93088,"municipality_NL":"Walcourt","municipality_FR":"Walcourt","arrondissement_NL":"Philippeville","arrondissement_FR":"Philippeville","province_NL":"Namen","province_FR":"Namur","region_NL":"Waals Gewest","region_FR":"Région wallonne","inhabitants":"18 430","zip":5651},{"NIS_code":93090,"municipality_NL":"Viroinval","municipality_FR":"Viroinval","arrondissement_NL":"Philippeville","arrondissement_FR":"Philippeville","province_NL":"Namen","province_FR":"Namur","region_NL":"Waals Gewest","region_FR":"Région wallonne","inhabitants":"5 659","zip":5670}]